name,region,country,lat,lon,tz_id,localtime_epoch,localtime
Amaravati,Maharashtra,India,20.93,77.75,Asia/Kolkata,1634903533,2021-10-22 17:22
Visakhapatnam,Andhra Pradesh,India,17.7,83.3,Asia/Kolkata,1634903543,2021-10-22 17:22
Vijayawada,Andhra Pradesh,India,16.52,80.62,Asia/Kolkata,1634903553,2021-10-22 17:22
Guntur,Andhra Pradesh,India,16.3,80.45,Asia/Kolkata,1634903564,2021-10-22 17:22
Nellore,Andhra Pradesh,India,14.43,79.97,Asia/Kolkata,1634903574,2021-10-22 17:22
Nellore,Andhra Pradesh,India,14.43,79.97,Asia/Kolkata,1634903574,2021-10-22 17:22
Amaravati,Maharashtra,India,20.93,77.75,Asia/Kolkata,1634903586,2021-10-22 17:23
Visakhapatnam,Andhra Pradesh,India,17.7,83.3,Asia/Kolkata,1634903596,2021-10-22 17:23
Vijayawada,Andhra Pradesh,India,16.52,80.62,Asia/Kolkata,1634903606,2021-10-22 17:23
Guntur,Andhra Pradesh,India,16.3,80.45,Asia/Kolkata,1634903617,2021-10-22 17:23
Nellore,Andhra Pradesh,India,14.43,79.97,Asia/Kolkata,1634903627,2021-10-22 17:23
Tirupati,Andhra Pradesh,India,13.65,79.42,Asia/Kolkata,1634903638,2021-10-22 17:23
Amaravati,Maharashtra,India,20.93,77.75,Asia/Kolkata,1634903648,2021-10-22 17:24
Visakhapatnam,Andhra Pradesh,India,17.7,83.3,Asia/Kolkata,1634903658,2021-10-22 17:24
Vijayawada,Andhra Pradesh,India,16.52,80.62,Asia/Kolkata,1634903669,2021-10-22 17:24
Guntur,Andhra Pradesh,India,16.3,80.45,Asia/Kolkata,1634903679,2021-10-22 17:24
Nellore,Andhra Pradesh,India,14.43,79.97,Asia/Kolkata,1634903689,2021-10-22 17:24
Tirupati,Andhra Pradesh,India,13.65,79.42,Asia/Kolkata,1634903699,2021-10-22 17:24
Amaravati,Maharashtra,India,20.93,77.75,Asia/Kolkata,1634903710,2021-10-22 17:25
Visakhapatnam,Andhra Pradesh,India,17.7,83.3,Asia/Kolkata,1634903720,2021-10-22 17:25
Vijayawada,Andhra Pradesh,India,16.52,80.62,Asia/Kolkata,1634903730,2021-10-22 17:25
Guntur,Andhra Pradesh,India,16.3,80.45,Asia/Kolkata,1634903740,2021-10-22 17:25
Nellore,Andhra Pradesh,India,14.43,79.97,Asia/Kolkata,1634903751,2021-10-22 17:25
Tirupati,Andhra Pradesh,India,13.65,79.42,Asia/Kolkata,1634903761,2021-10-22 17:26
Amaravati,Maharashtra,India,20.93,77.75,Asia/Kolkata,1634903771,2021-10-22 17:26
Visakhapatnam,Andhra Pradesh,India,17.7,83.3,Asia/Kolkata,1634903782,2021-10-22 17:26
Vijayawada,Andhra Pradesh,India,16.52,80.62,Asia/Kolkata,1634903792,2021-10-22 17:26
Guntur,Andhra Pradesh,India,16.3,80.45,Asia/Kolkata,1634903802,2021-10-22 17:26
Nellore,Andhra Pradesh,India,14.43,79.97,Asia/Kolkata,1634903813,2021-10-22 17:26
Tirupati,Andhra Pradesh,India,13.65,79.42,Asia/Kolkata,1634903823,2021-10-22 17:27
Amaravati,Maharashtra,India,20.93,77.75,Asia/Kolkata,1634903833,2021-10-22 17:27
Visakhapatnam,Andhra Pradesh,India,17.7,83.3,Asia/Kolkata,1634903843,2021-10-22 17:27
Vijayawada,Andhra Pradesh,India,16.52,80.62,Asia/Kolkata,1634903854,2021-10-22 17:27
Guntur,Andhra Pradesh,India,16.3,80.45,Asia/Kolkata,1634903864,2021-10-22 17:27
Nellore,Andhra Pradesh,India,14.43,79.97,Asia/Kolkata,1634903874,2021-10-22 17:27
Tirupati,Andhra Pradesh,India,13.65,79.42,Asia/Kolkata,1634903885,2021-10-22 17:28
Amaravati,Maharashtra,India,20.93,77.75,Asia/Kolkata,1634903895,2021-10-22 17:28
Visakhapatnam,Andhra Pradesh,India,17.7,83.3,Asia/Kolkata,1634903905,2021-10-22 17:28
Vijayawada,Andhra Pradesh,India,16.52,80.62,Asia/Kolkata,1634903915,2021-10-22 17:28
Guntur,Andhra Pradesh,India,16.3,80.45,Asia/Kolkata,1634903926,2021-10-22 17:28
Nellore,Andhra Pradesh,India,14.43,79.97,Asia/Kolkata,1634903936,2021-10-22 17:28
Tirupati,Andhra Pradesh,India,13.65,79.42,Asia/Kolkata,1634903946,2021-10-22 17:29
Amaravati,Maharashtra,India,20.93,77.75,Asia/Kolkata,1634903956,2021-10-22 17:29
Visakhapatnam,Andhra Pradesh,India,17.7,83.3,Asia/Kolkata,1634903967,2021-10-22 17:29
Vijayawada,Andhra Pradesh,India,16.52,80.62,Asia/Kolkata,1634903977,2021-10-22 17:29
Guntur,Andhra Pradesh,India,16.3,80.45,Asia/Kolkata,1634903987,2021-10-22 17:29
Nellore,Andhra Pradesh,India,14.43,79.97,Asia/Kolkata,1634903998,2021-10-22 17:29
Tirupati,Andhra Pradesh,India,13.65,79.42,Asia/Kolkata,1634904008,2021-10-22 17:30
Itanagar,Goa,India,27.1,93.62,Asia/Kolkata,1634904018,2021-10-22 17:30
Tawang,Arunachal Pradesh,India,27.58,91.87,Asia/Thimphu,1634904029,2021-10-22 18:00
Pasighat,Arunachal Pradesh,India,28.07,95.33,Asia/Kolkata,1634904049,2021-10-22 17:30
Ziro,Arunachal Pradesh,India,27.63,93.83,Asia/Kolkata,1634904060,2021-10-22 17:31
Bomdila,Arunachal Pradesh,India,27.25,92.4,Asia/Kolkata,1634904070,2021-10-22 17:31
Itanagar,Goa,India,27.1,93.62,Asia/Kolkata,1634904080,2021-10-22 17:31
Tawang,Arunachal Pradesh,India,27.58,91.87,Asia/Thimphu,1634904090,2021-10-22 18:01
Pasighat,Arunachal Pradesh,India,28.07,95.33,Asia/Kolkata,1634904111,2021-10-22 17:31
Ziro,Arunachal Pradesh,India,27.63,93.83,Asia/Kolkata,1634904121,2021-10-22 17:32
Bomdila,Arunachal Pradesh,India,27.25,92.4,Asia/Kolkata,1634904132,2021-10-22 17:32
Itanagar,Goa,India,27.1,93.62,Asia/Kolkata,1634904142,2021-10-22 17:32
Tawang,Arunachal Pradesh,India,27.58,91.87,Asia/Thimphu,1634904152,2021-10-22 18:02
Pasighat,Arunachal Pradesh,India,28.07,95.33,Asia/Kolkata,1634904173,2021-10-22 17:32
Ziro,Arunachal Pradesh,India,27.63,93.83,Asia/Kolkata,1634904183,2021-10-22 17:33
Bomdila,Arunachal Pradesh,India,27.25,92.4,Asia/Kolkata,1634904193,2021-10-22 17:33
Itanagar,Goa,India,27.1,93.62,Asia/Kolkata,1634904203,2021-10-22 17:33
Tawang,Arunachal Pradesh,India,27.58,91.87,Asia/Thimphu,1634904214,2021-10-22 18:03
Pasighat,Arunachal Pradesh,India,28.07,95.33,Asia/Kolkata,1634904234,2021-10-22 17:33
Ziro,Arunachal Pradesh,India,27.63,93.83,Asia/Kolkata,1634904244,2021-10-22 17:34
Bomdila,Arunachal Pradesh,India,27.25,92.4,Asia/Kolkata,1634904255,2021-10-22 17:34
Itanagar,Goa,India,27.1,93.62,Asia/Kolkata,1634904265,2021-10-22 17:34
Tawang,Arunachal Pradesh,India,27.58,91.87,Asia/Thimphu,1634904275,2021-10-22 18:04
Pasighat,Arunachal Pradesh,India,28.07,95.33,Asia/Kolkata,1634904296,2021-10-22 17:34
Ziro,Arunachal Pradesh,India,27.63,93.83,Asia/Kolkata,1634904306,2021-10-22 17:35
Bomdila,Arunachal Pradesh,India,27.25,92.4,Asia/Kolkata,1634904316,2021-10-22 17:35
Itanagar,Goa,India,27.1,93.62,Asia/Kolkata,1634904327,2021-10-22 17:35
Tawang,Arunachal Pradesh,India,27.58,91.87,Asia/Thimphu,1634904337,2021-10-22 18:05
Pasighat,Arunachal Pradesh,India,28.07,95.33,Asia/Kolkata,1634904358,2021-10-22 17:35
Ziro,Arunachal Pradesh,India,27.63,93.83,Asia/Kolkata,1634904368,2021-10-22 17:36
Bomdila,Arunachal Pradesh,India,27.25,92.4,Asia/Kolkata,1634904378,2021-10-22 17:36
Itanagar,Goa,India,27.1,93.62,Asia/Kolkata,1634904389,2021-10-22 17:36
Tawang,Arunachal Pradesh,India,27.58,91.87,Asia/Thimphu,1634904399,2021-10-22 18:06
Pasighat,Arunachal Pradesh,India,28.07,95.33,Asia/Kolkata,1634904419,2021-10-22 17:36
Ziro,Arunachal Pradesh,India,27.63,93.83,Asia/Kolkata,1634904430,2021-10-22 17:37
Bomdila,Arunachal Pradesh,India,27.25,92.4,Asia/Kolkata,1634904440,2021-10-22 17:37
Itanagar,Goa,India,27.1,93.62,Asia/Kolkata,1634904450,2021-10-22 17:37
Tawang,Arunachal Pradesh,India,27.58,91.87,Asia/Thimphu,1634904461,2021-10-22 18:07
Pasighat,Arunachal Pradesh,India,28.07,95.33,Asia/Kolkata,1634904481,2021-10-22 17:38
Ziro,Arunachal Pradesh,India,27.63,93.83,Asia/Kolkata,1634904492,2021-10-22 17:38
Bomdila,Arunachal Pradesh,India,27.25,92.4,Asia/Kolkata,1634904502,2021-10-22 17:38
Dispur,Assam,India,26.14,91.79,Asia/Kolkata,1634904512,2021-10-22 17:38
Guwahati,Assam,India,26.18,91.73,Asia/Kolkata,1634904522,2021-10-22 17:38
Tezpur,Assam,India,26.63,92.8,Asia/Kolkata,1634904533,2021-10-22 17:38
Dibrugarh,Assam,India,27.48,94.9,Asia/Kolkata,1634904543,2021-10-22 17:39
Silchar,Assam,India,24.82,92.8,Asia/Kolkata,1634904553,2021-10-22 17:39
North Lakhimpur,Assam,India,27.23,94.12,Asia/Kolkata,1634904564,2021-10-22 17:39
Dispur,Assam,India,26.14,91.79,Asia/Kolkata,1634904574,2021-10-22 17:39
Guwahati,Assam,India,26.18,91.73,Asia/Kolkata,1634904584,2021-10-22 17:39
Tezpur,Assam,India,26.63,92.8,Asia/Kolkata,1634904595,2021-10-22 17:39
Dibrugarh,Assam,India,27.48,94.9,Asia/Kolkata,1634904605,2021-10-22 17:40
Silchar,Assam,India,24.82,92.8,Asia/Kolkata,1634904615,2021-10-22 17:40
North Lakhimpur,Assam,India,27.23,94.12,Asia/Kolkata,1634904625,2021-10-22 17:40
Dispur,Assam,India,26.14,91.79,Asia/Kolkata,1634904636,2021-10-22 17:40
Guwahati,Assam,India,26.18,91.73,Asia/Kolkata,1634904646,2021-10-22 17:40
Tezpur,Assam,India,26.63,92.8,Asia/Kolkata,1634904656,2021-10-22 17:40
Dibrugarh,Assam,India,27.48,94.9,Asia/Kolkata,1634904666,2021-10-22 17:41
Silchar,Assam,India,24.82,92.8,Asia/Kolkata,1634904677,2021-10-22 17:41
North Lakhimpur,Assam,India,27.23,94.12,Asia/Kolkata,1634904687,2021-10-22 17:41
Dispur,Assam,India,26.14,91.79,Asia/Kolkata,1634904697,2021-10-22 17:41
Guwahati,Assam,India,26.18,91.73,Asia/Kolkata,1634904708,2021-10-22 17:41
Tezpur,Assam,India,26.63,92.8,Asia/Kolkata,1634904718,2021-10-22 17:41
Dibrugarh,Assam,India,27.48,94.9,Asia/Kolkata,1634904728,2021-10-22 17:42
Silchar,Assam,India,24.82,92.8,Asia/Kolkata,1634904738,2021-10-22 17:42
North Lakhimpur,Assam,India,27.23,94.12,Asia/Kolkata,1634904748,2021-10-22 17:42
Dispur,Assam,India,26.14,91.79,Asia/Kolkata,1634904759,2021-10-22 17:42
Guwahati,Assam,India,26.18,91.73,Asia/Kolkata,1634904769,2021-10-22 17:42
Tezpur,Assam,India,26.63,92.8,Asia/Kolkata,1634904779,2021-10-22 17:42
Dibrugarh,Assam,India,27.48,94.9,Asia/Kolkata,1634904789,2021-10-22 17:43
Silchar,Assam,India,24.82,92.8,Asia/Kolkata,1634904800,2021-10-22 17:43
North Lakhimpur,Assam,India,27.23,94.12,Asia/Kolkata,1634904810,2021-10-22 17:43
Dispur,Assam,India,26.14,91.79,Asia/Kolkata,1634904820,2021-10-22 17:43
Guwahati,Assam,India,26.18,91.73,Asia/Kolkata,1634904831,2021-10-22 17:43
Tezpur,Assam,India,26.63,92.8,Asia/Kolkata,1634904841,2021-10-22 17:44
Dibrugarh,Assam,India,27.48,94.9,Asia/Kolkata,1634904851,2021-10-22 17:44
Silchar,Assam,India,24.82,92.8,Asia/Kolkata,1634904861,2021-10-22 17:44
North Lakhimpur,Assam,India,27.23,94.12,Asia/Kolkata,1634904872,2021-10-22 17:44
Dispur,Assam,India,26.14,91.79,Asia/Kolkata,1634904882,2021-10-22 17:44
Guwahati,Assam,India,26.18,91.73,Asia/Kolkata,1634904892,2021-10-22 17:44
Tezpur,Assam,India,26.63,92.8,Asia/Kolkata,1634904903,2021-10-22 17:45
Dibrugarh,Assam,India,27.48,94.9,Asia/Kolkata,1634904913,2021-10-22 17:45
Silchar,Assam,India,24.82,92.8,Asia/Kolkata,1634904923,2021-10-22 17:45
North Lakhimpur,Assam,India,27.23,94.12,Asia/Kolkata,1634904933,2021-10-22 17:45
Dispur,Assam,India,26.14,91.79,Asia/Kolkata,1634904944,2021-10-22 17:45
Guwahati,Assam,India,26.18,91.73,Asia/Kolkata,1634904954,2021-10-22 17:45
Tezpur,Assam,India,26.63,92.8,Asia/Kolkata,1634904964,2021-10-22 17:46
Dibrugarh,Assam,India,27.48,94.9,Asia/Kolkata,1634904974,2021-10-22 17:46
Silchar,Assam,India,24.82,92.8,Asia/Kolkata,1634904985,2021-10-22 17:46
North Lakhimpur,Assam,India,27.23,94.12,Asia/Kolkata,1634904995,2021-10-22 17:46
Patna,Bihar,India,25.6,85.12,Asia/Kolkata,1634905005,2021-10-22 17:46
Gaya,Bihar,India,24.78,85.0,Asia/Kolkata,1634905016,2021-10-22 17:46
Darbhanga,Bihar,India,26.17,85.9,Asia/Kolkata,1634905036,2021-10-22 17:47
Bhagalpur,Bihar,India,25.25,87.0,Asia/Kolkata,1634905047,2021-10-22 17:47
Patna,Bihar,India,25.6,85.12,Asia/Kolkata,1634905057,2021-10-22 17:47
Gaya,Bihar,India,24.78,85.0,Asia/Kolkata,1634905067,2021-10-22 17:47
Darbhanga,Bihar,India,26.17,85.9,Asia/Kolkata,1634905088,2021-10-22 17:48
Bhagalpur,Bihar,India,25.25,87.0,Asia/Kolkata,1634905098,2021-10-22 17:48
Patna,Bihar,India,25.6,85.12,Asia/Kolkata,1634905108,2021-10-22 17:48
Gaya,Bihar,India,24.78,85.0,Asia/Kolkata,1634905118,2021-10-22 17:48
Darbhanga,Bihar,India,26.17,85.9,Asia/Kolkata,1634905139,2021-10-22 17:48
Bhagalpur,Bihar,India,25.25,87.0,Asia/Kolkata,1634905149,2021-10-22 17:49
Patna,Bihar,India,25.6,85.12,Asia/Kolkata,1634905159,2021-10-22 17:49
Gaya,Bihar,India,24.78,85.0,Asia/Kolkata,1634905170,2021-10-22 17:49
Darbhanga,Bihar,India,26.17,85.9,Asia/Kolkata,1634905190,2021-10-22 17:49
Bhagalpur,Bihar,India,25.25,87.0,Asia/Kolkata,1634905200,2021-10-22 17:50
Patna,Bihar,India,25.6,85.12,Asia/Kolkata,1634905211,2021-10-22 17:50
Gaya,Bihar,India,24.78,85.0,Asia/Kolkata,1634905221,2021-10-22 17:50
Darbhanga,Bihar,India,26.17,85.9,Asia/Kolkata,1634905241,2021-10-22 17:50
Bhagalpur,Bihar,India,25.25,87.0,Asia/Kolkata,1634905252,2021-10-22 17:50
Patna,Bihar,India,25.6,85.12,Asia/Kolkata,1634905262,2021-10-22 17:51
Gaya,Bihar,India,24.78,85.0,Asia/Kolkata,1634905272,2021-10-22 17:51
Darbhanga,Bihar,India,26.17,85.9,Asia/Kolkata,1634905293,2021-10-22 17:51
Bhagalpur,Bihar,India,25.25,87.0,Asia/Kolkata,1634905303,2021-10-22 17:51
Patna,Bihar,India,25.6,85.12,Asia/Kolkata,1634905313,2021-10-22 17:51
Gaya,Bihar,India,24.78,85.0,Asia/Kolkata,1634905323,2021-10-22 17:52
Darbhanga,Bihar,India,26.17,85.9,Asia/Kolkata,1634905344,2021-10-22 17:52
Bhagalpur,Bihar,India,25.25,87.0,Asia/Kolkata,1634905354,2021-10-22 17:52
Patna,Bihar,India,25.6,85.12,Asia/Kolkata,1634905364,2021-10-22 17:52
Gaya,Bihar,India,24.78,85.0,Asia/Kolkata,1634905375,2021-10-22 17:52
Darbhanga,Bihar,India,26.17,85.9,Asia/Kolkata,1634905396,2021-10-22 17:53
Bhagalpur,Bihar,India,25.25,87.0,Asia/Kolkata,1634905406,2021-10-22 17:53
Raipur,Chhattisgarh,India,21.23,81.63,Asia/Kolkata,1634905416,2021-10-22 17:53
Bilaspur,Chhattisgarh,India,22.08,82.15,Asia/Kolkata,1634905427,2021-10-22 17:53
Korba,Chhattisgarh,India,22.35,82.68,Asia/Kolkata,1634905437,2021-10-22 17:53
Raigarh,Chhattisgarh,India,21.9,83.4,Asia/Kolkata,1634905447,2021-10-22 17:54
Raipur,Chhattisgarh,India,21.23,81.63,Asia/Kolkata,1634905468,2021-10-22 17:54
Bilaspur,Chhattisgarh,India,22.08,82.15,Asia/Kolkata,1634905478,2021-10-22 17:54
Korba,Chhattisgarh,India,22.35,82.68,Asia/Kolkata,1634905488,2021-10-22 17:54
Raigarh,Chhattisgarh,India,21.9,83.4,Asia/Kolkata,1634905499,2021-10-22 17:54
Raipur,Chhattisgarh,India,21.23,81.63,Asia/Kolkata,1634905519,2021-10-22 17:55
Bilaspur,Chhattisgarh,India,22.08,82.15,Asia/Kolkata,1634905529,2021-10-22 17:55
Korba,Chhattisgarh,India,22.35,82.68,Asia/Kolkata,1634905540,2021-10-22 17:55
Raigarh,Chhattisgarh,India,21.9,83.4,Asia/Kolkata,1634905550,2021-10-22 17:55
Raipur,Chhattisgarh,India,21.23,81.63,Asia/Kolkata,1634905571,2021-10-22 17:56
Bilaspur,Chhattisgarh,India,22.08,82.15,Asia/Kolkata,1634905581,2021-10-22 17:56
Korba,Chhattisgarh,India,22.35,82.68,Asia/Kolkata,1634905591,2021-10-22 17:56
Raigarh,Chhattisgarh,India,21.9,83.4,Asia/Kolkata,1634905601,2021-10-22 17:56
Raipur,Chhattisgarh,India,21.23,81.63,Asia/Kolkata,1634905622,2021-10-22 17:57
Bilaspur,Chhattisgarh,India,22.08,82.15,Asia/Kolkata,1634905632,2021-10-22 17:57
Korba,Chhattisgarh,India,22.35,82.68,Asia/Kolkata,1634905642,2021-10-22 17:57
Raigarh,Chhattisgarh,India,21.9,83.4,Asia/Kolkata,1634905653,2021-10-22 17:57
Raipur,Chhattisgarh,India,21.23,81.63,Asia/Kolkata,1634905673,2021-10-22 17:57
Bilaspur,Chhattisgarh,India,22.08,82.15,Asia/Kolkata,1634905684,2021-10-22 17:58
Korba,Chhattisgarh,India,22.35,82.68,Asia/Kolkata,1634905696,2021-10-22 17:58
Raigarh,Chhattisgarh,India,21.9,83.4,Asia/Kolkata,1634905706,2021-10-22 17:58
Raipur,Chhattisgarh,India,21.23,81.63,Asia/Kolkata,1634905727,2021-10-22 17:58
Bilaspur,Chhattisgarh,India,22.08,82.15,Asia/Kolkata,1634905737,2021-10-22 17:58
Korba,Chhattisgarh,India,22.35,82.68,Asia/Kolkata,1634905747,2021-10-22 17:59
Raigarh,Chhattisgarh,India,21.9,83.4,Asia/Kolkata,1634905758,2021-10-22 17:59
Raipur,Chhattisgarh,India,21.23,81.63,Asia/Kolkata,1634905778,2021-10-22 17:59
Bilaspur,Chhattisgarh,India,22.08,82.15,Asia/Kolkata,1634905788,2021-10-22 17:59
Korba,Chhattisgarh,India,22.35,82.68,Asia/Kolkata,1634905799,2021-10-22 17:59
Raigarh,Chhattisgarh,India,21.9,83.4,Asia/Kolkata,1634905809,2021-10-22 18:00
Panaji,Goa,India,15.48,73.83,Asia/Kolkata,1634905829,2021-10-22 18:00
Vasco Da Gama,Goa,India,15.4,73.83,Asia/Kolkata,1634905840,2021-10-22 18:00
Ponda,Goa,India,15.4,74.02,Asia/Kolkata,1634905850,2021-10-22 18:00
Margao,Goa,India,15.3,73.95,Asia/Kolkata,1634905860,2021-10-22 18:01
Mapusa,Masbate,Philippines,12.65,123.58,Asia/Manila,1634905871,2021-10-22 20:31
Goa Velha,Goa,India,15.43,73.87,Asia/Kolkata,1634905881,2021-10-22 18:01
Panaji,Goa,India,15.48,73.83,Asia/Kolkata,1634905891,2021-10-22 18:01
Vasco Da Gama,Goa,India,15.4,73.83,Asia/Kolkata,1634905901,2021-10-22 18:01
Ponda,Goa,India,15.4,74.02,Asia/Kolkata,1634905912,2021-10-22 18:01
Margao,Goa,India,15.3,73.95,Asia/Kolkata,1634905922,2021-10-22 18:02
Mapusa,Masbate,Philippines,12.65,123.58,Asia/Manila,1634905932,2021-10-22 20:32
Goa Velha,Goa,India,15.43,73.87,Asia/Kolkata,1634905943,2021-10-22 18:02
Panaji,Goa,India,15.48,73.83,Asia/Kolkata,1634905953,2021-10-22 18:02
Vasco Da Gama,Goa,India,15.4,73.83,Asia/Kolkata,1634905963,2021-10-22 18:02
Ponda,Goa,India,15.4,74.02,Asia/Kolkata,1634905973,2021-10-22 18:02
Margao,Goa,India,15.3,73.95,Asia/Kolkata,1634905984,2021-10-22 18:03
Mapusa,Masbate,Philippines,12.65,123.58,Asia/Manila,1634905994,2021-10-22 20:33
Goa Velha,Goa,India,15.43,73.87,Asia/Kolkata,1634906004,2021-10-22 18:03
Panaji,Goa,India,15.48,73.83,Asia/Kolkata,1634906015,2021-10-22 18:03
Vasco Da Gama,Goa,India,15.4,73.83,Asia/Kolkata,1634906025,2021-10-22 18:03
Ponda,Goa,India,15.4,74.02,Asia/Kolkata,1634906035,2021-10-22 18:03
Margao,Goa,India,15.3,73.95,Asia/Kolkata,1634906046,2021-10-22 18:04
Mapusa,Masbate,Philippines,12.65,123.58,Asia/Manila,1634906056,2021-10-22 20:34
Goa Velha,Goa,India,15.43,73.87,Asia/Kolkata,1634906066,2021-10-22 18:04
Panaji,Goa,India,15.48,73.83,Asia/Kolkata,1634906076,2021-10-22 18:04
Vasco Da Gama,Goa,India,15.4,73.83,Asia/Kolkata,1634906086,2021-10-22 18:04
Ponda,Goa,India,15.4,74.02,Asia/Kolkata,1634906097,2021-10-22 18:04
Margao,Goa,India,15.3,73.95,Asia/Kolkata,1634906107,2021-10-22 18:05
Mapusa,Masbate,Philippines,12.65,123.58,Asia/Manila,1634906117,2021-10-22 20:35
Goa Velha,Goa,India,15.43,73.87,Asia/Kolkata,1634906128,2021-10-22 18:05
Panaji,Goa,India,15.48,73.83,Asia/Kolkata,1634906138,2021-10-22 18:05
Vasco Da Gama,Goa,India,15.4,73.83,Asia/Kolkata,1634906148,2021-10-22 18:05
Ponda,Goa,India,15.4,74.02,Asia/Kolkata,1634906159,2021-10-22 18:05
Margao,Goa,India,15.3,73.95,Asia/Kolkata,1634906169,2021-10-22 18:06
Mapusa,Masbate,Philippines,12.65,123.58,Asia/Manila,1634906179,2021-10-22 20:36
Goa Velha,Goa,India,15.43,73.87,Asia/Kolkata,1634906189,2021-10-22 18:06
Panaji,Goa,India,15.48,73.83,Asia/Kolkata,1634906200,2021-10-22 18:06
Vasco Da Gama,Goa,India,15.4,73.83,Asia/Kolkata,1634906210,2021-10-22 18:06
Ponda,Goa,India,15.4,74.02,Asia/Kolkata,1634906220,2021-10-22 18:07
Margao,Goa,India,15.3,73.95,Asia/Kolkata,1634906231,2021-10-22 18:07
Mapusa,Masbate,Philippines,12.65,123.58,Asia/Manila,1634906241,2021-10-22 20:37
Goa Velha,Goa,India,15.43,73.87,Asia/Kolkata,1634906251,2021-10-22 18:07
Panaji,Goa,India,15.48,73.83,Asia/Kolkata,1634906261,2021-10-22 18:07
Vasco Da Gama,Goa,India,15.4,73.83,Asia/Kolkata,1634906272,2021-10-22 18:07
Ponda,Goa,India,15.4,74.02,Asia/Kolkata,1634906282,2021-10-22 18:08
Margao,Goa,India,15.3,73.95,Asia/Kolkata,1634906292,2021-10-22 18:08
Mapusa,Masbate,Philippines,12.65,123.58,Asia/Manila,1634906303,2021-10-22 20:38
Goa Velha,Goa,India,15.43,73.87,Asia/Kolkata,1634906313,2021-10-22 18:08
Gandhinagar,Gujarat,India,23.22,72.68,Asia/Kolkata,1634906323,2021-10-22 18:08
Ahmedabad,Gujarat,India,23.03,72.62,Asia/Kolkata,1634906333,2021-10-22 18:08
Surat,Gujarat,India,20.97,72.9,Asia/Kolkata,1634906344,2021-10-22 18:09
Rajkot,Gujarat,India,22.3,70.78,Asia/Kolkata,1634906354,2021-10-22 18:09
Junagadh,Gujarat,India,21.52,70.47,Asia/Kolkata,1634906364,2021-10-22 18:09
Vadodara,Gujarat,India,22.3,73.2,Asia/Kolkata,1634906374,2021-10-22 18:09
Gandhinagar,Gujarat,India,23.22,72.68,Asia/Kolkata,1634906385,2021-10-22 18:09
Ahmedabad,Gujarat,India,23.03,72.62,Asia/Kolkata,1634906395,2021-10-22 18:09
Surat,Gujarat,India,20.97,72.9,Asia/Kolkata,1634906405,2021-10-22 18:10
Rajkot,Gujarat,India,22.3,70.78,Asia/Kolkata,1634906416,2021-10-22 18:10
Junagadh,Gujarat,India,21.52,70.47,Asia/Kolkata,1634906426,2021-10-22 18:10
Vadodara,Gujarat,India,22.3,73.2,Asia/Kolkata,1634906436,2021-10-22 18:10
Gandhinagar,Gujarat,India,23.22,72.68,Asia/Kolkata,1634906447,2021-10-22 18:10
Ahmedabad,Gujarat,India,23.03,72.62,Asia/Kolkata,1634906457,2021-10-22 18:10
Surat,Gujarat,India,20.97,72.9,Asia/Kolkata,1634906467,2021-10-22 18:11
Rajkot,Gujarat,India,22.3,70.78,Asia/Kolkata,1634906478,2021-10-22 18:11
Junagadh,Gujarat,India,21.52,70.47,Asia/Kolkata,1634906488,2021-10-22 18:11
Vadodara,Gujarat,India,22.3,73.2,Asia/Kolkata,1634906499,2021-10-22 18:11
Gandhinagar,Gujarat,India,23.22,72.68,Asia/Kolkata,1634906509,2021-10-22 18:11
Ahmedabad,Gujarat,India,23.03,72.62,Asia/Kolkata,1634906519,2021-10-22 18:11
Surat,Gujarat,India,20.97,72.9,Asia/Kolkata,1634906530,2021-10-22 18:12
Rajkot,Gujarat,India,22.3,70.78,Asia/Kolkata,1634906540,2021-10-22 18:12
Junagadh,Gujarat,India,21.52,70.47,Asia/Kolkata,1634906550,2021-10-22 18:12
Vadodara,Gujarat,India,22.3,73.2,Asia/Kolkata,1634906560,2021-10-22 18:12
Gandhinagar,Gujarat,India,23.22,72.68,Asia/Kolkata,1634906571,2021-10-22 18:12
Ahmedabad,Gujarat,India,23.03,72.62,Asia/Kolkata,1634906581,2021-10-22 18:13
Surat,Gujarat,India,20.97,72.9,Asia/Kolkata,1634906591,2021-10-22 18:13
Rajkot,Gujarat,India,22.3,70.78,Asia/Kolkata,1634906601,2021-10-22 18:13
Junagadh,Gujarat,India,21.52,70.47,Asia/Kolkata,1634906612,2021-10-22 18:13
Vadodara,Gujarat,India,22.3,73.2,Asia/Kolkata,1634906622,2021-10-22 18:13
Gandhinagar,Gujarat,India,23.22,72.68,Asia/Kolkata,1634906632,2021-10-22 18:13
Ahmedabad,Gujarat,India,23.03,72.62,Asia/Kolkata,1634906642,2021-10-22 18:14
Surat,Gujarat,India,20.97,72.9,Asia/Kolkata,1634906653,2021-10-22 18:14
Rajkot,Gujarat,India,22.3,70.78,Asia/Kolkata,1634906663,2021-10-22 18:14
Junagadh,Gujarat,India,21.52,70.47,Asia/Kolkata,1634906674,2021-10-22 18:14
Vadodara,Gujarat,India,22.3,73.2,Asia/Kolkata,1634906684,2021-10-22 18:14
Gandhinagar,Gujarat,India,23.22,72.68,Asia/Kolkata,1634906694,2021-10-22 18:14
Ahmedabad,Gujarat,India,23.03,72.62,Asia/Kolkata,1634906704,2021-10-22 18:15
Surat,Gujarat,India,20.97,72.9,Asia/Kolkata,1634906714,2021-10-22 18:15
Rajkot,Gujarat,India,22.3,70.78,Asia/Kolkata,1634906725,2021-10-22 18:15
Junagadh,Gujarat,India,21.52,70.47,Asia/Kolkata,1634906735,2021-10-22 18:15
Vadodara,Gujarat,India,22.3,73.2,Asia/Kolkata,1634906745,2021-10-22 18:15
Gandhinagar,Gujarat,India,23.22,72.68,Asia/Kolkata,1634906755,2021-10-22 18:15
Ahmedabad,Gujarat,India,23.03,72.62,Asia/Kolkata,1634906766,2021-10-22 18:16
Surat,Gujarat,India,20.97,72.9,Asia/Kolkata,1634906776,2021-10-22 18:16
Rajkot,Gujarat,India,22.3,70.78,Asia/Kolkata,1634906786,2021-10-22 18:16
Junagadh,Gujarat,India,21.52,70.47,Asia/Kolkata,1634906796,2021-10-22 18:16
Vadodara,Gujarat,India,22.3,73.2,Asia/Kolkata,1634906807,2021-10-22 18:16
Chandigarh,Chandigarh,India,30.74,76.79,Asia/Kolkata,1634906817,2021-10-22 18:16
Faridabad,Haryana,India,28.43,77.32,Asia/Kolkata,1634906827,2021-10-22 18:17
Gurgaon,Haryana,India,28.47,77.03,Asia/Kolkata,1634906838,2021-10-22 18:17
Sonipat,Haryana,India,28.98,77.02,Asia/Kolkata,1634906848,2021-10-22 18:17
Panipat,Haryana,India,29.39,76.97,Asia/Kolkata,1634906858,2021-10-22 18:17
Ambala,Haryana,India,30.38,76.78,Asia/Kolkata,1634906869,2021-10-22 18:17
Chandigarh,Chandigarh,India,30.74,76.79,Asia/Kolkata,1634906879,2021-10-22 18:17
Faridabad,Haryana,India,28.43,77.32,Asia/Kolkata,1634906889,2021-10-22 18:18
Gurgaon,Haryana,India,28.47,77.03,Asia/Kolkata,1634906900,2021-10-22 18:18
Sonipat,Haryana,India,28.98,77.02,Asia/Kolkata,1634906910,2021-10-22 18:18
Panipat,Haryana,India,29.39,76.97,Asia/Kolkata,1634906920,2021-10-22 18:18
Ambala,Haryana,India,30.38,76.78,Asia/Kolkata,1634906931,2021-10-22 18:18
Chandigarh,Chandigarh,India,30.74,76.79,Asia/Kolkata,1634906941,2021-10-22 18:19
Faridabad,Haryana,India,28.43,77.32,Asia/Kolkata,1634906951,2021-10-22 18:19
Gurgaon,Haryana,India,28.47,77.03,Asia/Kolkata,1634906962,2021-10-22 18:19
Sonipat,Haryana,India,28.98,77.02,Asia/Kolkata,1634906972,2021-10-22 18:19
Panipat,Haryana,India,29.39,76.97,Asia/Kolkata,1634906982,2021-10-22 18:19
Ambala,Haryana,India,30.38,76.78,Asia/Kolkata,1634906992,2021-10-22 18:19
Chandigarh,Chandigarh,India,30.74,76.79,Asia/Kolkata,1634907003,2021-10-22 18:20
Faridabad,Haryana,India,28.43,77.32,Asia/Kolkata,1634907013,2021-10-22 18:20
Gurgaon,Haryana,India,28.47,77.03,Asia/Kolkata,1634907023,2021-10-22 18:20
Sonipat,Haryana,India,28.98,77.02,Asia/Kolkata,1634907034,2021-10-22 18:20
Panipat,Haryana,India,29.39,76.97,Asia/Kolkata,1634907044,2021-10-22 18:20
Ambala,Haryana,India,30.38,76.78,Asia/Kolkata,1634907054,2021-10-22 18:20
Chandigarh,Chandigarh,India,30.74,76.79,Asia/Kolkata,1634907064,2021-10-22 18:21
Faridabad,Haryana,India,28.43,77.32,Asia/Kolkata,1634907075,2021-10-22 18:21
Gurgaon,Haryana,India,28.47,77.03,Asia/Kolkata,1634907085,2021-10-22 18:21
Sonipat,Haryana,India,28.98,77.02,Asia/Kolkata,1634907095,2021-10-22 18:21
Panipat,Haryana,India,29.39,76.97,Asia/Kolkata,1634907106,2021-10-22 18:21
Ambala,Haryana,India,30.38,76.78,Asia/Kolkata,1634907116,2021-10-22 18:21
Chandigarh,Chandigarh,India,30.74,76.79,Asia/Kolkata,1634907126,2021-10-22 18:22
Faridabad,Haryana,India,28.43,77.32,Asia/Kolkata,1634907137,2021-10-22 18:22
Gurgaon,Haryana,India,28.47,77.03,Asia/Kolkata,1634907147,2021-10-22 18:22
Sonipat,Haryana,India,28.98,77.02,Asia/Kolkata,1634907157,2021-10-22 18:22
Panipat,Haryana,India,29.39,76.97,Asia/Kolkata,1634907168,2021-10-22 18:22
Ambala,Haryana,India,30.38,76.78,Asia/Kolkata,1634907178,2021-10-22 18:22
Chandigarh,Chandigarh,India,30.74,76.79,Asia/Kolkata,1634907188,2021-10-22 18:23
Faridabad,Haryana,India,28.43,77.32,Asia/Kolkata,1634907199,2021-10-22 18:23
Gurgaon,Haryana,India,28.47,77.03,Asia/Kolkata,1634907209,2021-10-22 18:23
Sonipat,Haryana,India,28.98,77.02,Asia/Kolkata,1634907219,2021-10-22 18:23
Panipat,Haryana,India,29.39,76.97,Asia/Kolkata,1634907230,2021-10-22 18:23
Ambala,Haryana,India,30.38,76.78,Asia/Kolkata,1634907240,2021-10-22 18:24
Chandigarh,Chandigarh,India,30.74,76.79,Asia/Kolkata,1634907250,2021-10-22 18:24
Faridabad,Haryana,India,28.43,77.32,Asia/Kolkata,1634907260,2021-10-22 18:24
Gurgaon,Haryana,India,28.47,77.03,Asia/Kolkata,1634907271,2021-10-22 18:24
Sonipat,Haryana,India,28.98,77.02,Asia/Kolkata,1634907281,2021-10-22 18:24
Panipat,Haryana,India,29.39,76.97,Asia/Kolkata,1634907291,2021-10-22 18:24
Ambala,Haryana,India,30.38,76.78,Asia/Kolkata,1634907301,2021-10-22 18:25
Shimla,Himachal Pradesh,India,31.1,77.17,Asia/Kolkata,1634907312,2021-10-22 18:25
Mandi Bahauddin,Punjab,Pakistan,32.58,73.5,Asia/Karachi,1634907332,2021-10-22 17:55
Solan,Himachal Pradesh,India,30.92,77.12,Asia/Kolkata,1634907342,2021-10-22 18:25
Bilaspur,Chhattisgarh,India,22.08,82.15,Asia/Kolkata,1634907353,2021-10-22 18:25
Chambas,Ciego de Avila,Cuba,22.19,-78.91,America/Havana,1634907363,2021-10-22 8:56
Shimla,Himachal Pradesh,India,31.1,77.17,Asia/Kolkata,1634907374,2021-10-22 18:26
Mandi Bahauddin,Punjab,Pakistan,32.58,73.5,Asia/Karachi,1634907394,2021-10-22 17:56
Solan,Himachal Pradesh,India,30.92,77.12,Asia/Kolkata,1634907404,2021-10-22 18:26
Bilaspur,Chhattisgarh,India,22.08,82.15,Asia/Kolkata,1634907415,2021-10-22 18:26
Chambas,Ciego de Avila,Cuba,22.19,-78.91,America/Havana,1634907425,2021-10-22 8:57
Shimla,Himachal Pradesh,India,31.1,77.17,Asia/Kolkata,1634907435,2021-10-22 18:27
Mandi Bahauddin,Punjab,Pakistan,32.58,73.5,Asia/Karachi,1634907456,2021-10-22 17:57
Solan,Himachal Pradesh,India,30.92,77.12,Asia/Kolkata,1634907466,2021-10-22 18:27
Bilaspur,Chhattisgarh,India,22.08,82.15,Asia/Kolkata,1634907476,2021-10-22 18:27
Chambas,Ciego de Avila,Cuba,22.19,-78.91,America/Havana,1634907486,2021-10-22 8:58
Shimla,Himachal Pradesh,India,31.1,77.17,Asia/Kolkata,1634907497,2021-10-22 18:28
Mandi Bahauddin,Punjab,Pakistan,32.58,73.5,Asia/Karachi,1634907518,2021-10-22 17:58
Solan,Himachal Pradesh,India,30.92,77.12,Asia/Kolkata,1634907528,2021-10-22 18:28
Bilaspur,Chhattisgarh,India,22.08,82.15,Asia/Kolkata,1634907539,2021-10-22 18:28
Chambas,Ciego de Avila,Cuba,22.19,-78.91,America/Havana,1634907549,2021-10-22 8:59
Shimla,Himachal Pradesh,India,31.1,77.17,Asia/Kolkata,1634907559,2021-10-22 18:29
Mandi Bahauddin,Punjab,Pakistan,32.58,73.5,Asia/Karachi,1634907580,2021-10-22 17:59
Solan,Himachal Pradesh,India,30.92,77.12,Asia/Kolkata,1634907590,2021-10-22 18:29
Bilaspur,Chhattisgarh,India,22.08,82.15,Asia/Kolkata,1634907600,2021-10-22 18:30
Chambas,Ciego de Avila,Cuba,22.19,-78.91,America/Havana,1634907611,2021-10-22 9:00
Shimla,Himachal Pradesh,India,31.1,77.17,Asia/Kolkata,1634907621,2021-10-22 18:30
Mandi Bahauddin,Punjab,Pakistan,32.58,73.5,Asia/Karachi,1634907641,2021-10-22 18:00
Solan,Himachal Pradesh,India,30.92,77.12,Asia/Kolkata,1634907652,2021-10-22 18:30
Bilaspur,Chhattisgarh,India,22.08,82.15,Asia/Kolkata,1634907662,2021-10-22 18:31
Chambas,Ciego de Avila,Cuba,22.19,-78.91,America/Havana,1634907672,2021-10-22 9:01
Shimla,Himachal Pradesh,India,31.1,77.17,Asia/Kolkata,1634907682,2021-10-22 18:31
Mandi Bahauddin,Punjab,Pakistan,32.58,73.5,Asia/Karachi,1634907703,2021-10-22 18:01
Solan,Himachal Pradesh,India,30.92,77.12,Asia/Kolkata,1634907713,2021-10-22 18:31
Bilaspur,Chhattisgarh,India,22.08,82.15,Asia/Kolkata,1634907723,2021-10-22 18:32
Chambas,Ciego de Avila,Cuba,22.19,-78.91,America/Havana,1634907734,2021-10-22 9:02
Shimla,Himachal Pradesh,India,31.1,77.17,Asia/Kolkata,1634907744,2021-10-22 18:32
Mandi Bahauddin,Punjab,Pakistan,32.58,73.5,Asia/Karachi,1634907764,2021-10-22 18:02
Solan,Himachal Pradesh,India,30.92,77.12,Asia/Kolkata,1634907775,2021-10-22 18:32
Bilaspur,Chhattisgarh,India,22.08,82.15,Asia/Kolkata,1634907785,2021-10-22 18:33
Chambas,Ciego de Avila,Cuba,22.19,-78.91,America/Havana,1634907796,2021-10-22 9:03
Ranchi,Jharkhand,India,23.35,85.33,Asia/Kolkata,1634907806,2021-10-22 18:33
Bokaro,Jharkhand,India,23.78,85.97,Asia/Kolkata,1634907816,2021-10-22 18:33
Jamshedpur,Jharkhand,India,22.8,86.18,Asia/Kolkata,1634907826,2021-10-22 18:33
Deoghar,,Bangladesh,24.27,91.08,Asia/Dhaka,1634907837,2021-10-22 19:03
Hazaribagh,Jharkhand,India,23.98,85.35,Asia/Kolkata,1634907847,2021-10-22 18:34
Dhanbad,Jharkhand,India,23.8,86.45,Asia/Kolkata,1634907857,2021-10-22 18:34
Ranchi,Jharkhand,India,23.35,85.33,Asia/Kolkata,1634907868,2021-10-22 18:34
Bokaro,Jharkhand,India,23.78,85.97,Asia/Kolkata,1634907878,2021-10-22 18:34
Jamshedpur,Jharkhand,India,22.8,86.18,Asia/Kolkata,1634907888,2021-10-22 18:34
Deoghar,,Bangladesh,24.27,91.08,Asia/Dhaka,1634907899,2021-10-22 19:04
Hazaribagh,Jharkhand,India,23.98,85.35,Asia/Kolkata,1634907909,2021-10-22 18:35
Dhanbad,Jharkhand,India,23.8,86.45,Asia/Kolkata,1634907919,2021-10-22 18:35
Ranchi,Jharkhand,India,23.35,85.33,Asia/Kolkata,1634907930,2021-10-22 18:35
Bokaro,Jharkhand,India,23.78,85.97,Asia/Kolkata,1634907940,2021-10-22 18:35
Jamshedpur,Jharkhand,India,22.8,86.18,Asia/Kolkata,1634907950,2021-10-22 18:35
Deoghar,,Bangladesh,24.27,91.08,Asia/Dhaka,1634907960,2021-10-22 19:06
Hazaribagh,Jharkhand,India,23.98,85.35,Asia/Kolkata,1634907971,2021-10-22 18:36
Dhanbad,Jharkhand,India,23.8,86.45,Asia/Kolkata,1634907981,2021-10-22 18:36
Ranchi,Jharkhand,India,23.35,85.33,Asia/Kolkata,1634907991,2021-10-22 18:36
Bokaro,Jharkhand,India,23.78,85.97,Asia/Kolkata,1634908002,2021-10-22 18:36
Jamshedpur,Jharkhand,India,22.8,86.18,Asia/Kolkata,1634908012,2021-10-22 18:36
Deoghar,,Bangladesh,24.27,91.08,Asia/Dhaka,1634908022,2021-10-22 19:07
Hazaribagh,Jharkhand,India,23.98,85.35,Asia/Kolkata,1634908033,2021-10-22 18:37
Dhanbad,Jharkhand,India,23.8,86.45,Asia/Kolkata,1634908043,2021-10-22 18:37
Ranchi,Jharkhand,India,23.35,85.33,Asia/Kolkata,1634908053,2021-10-22 18:37
Bokaro,Jharkhand,India,23.78,85.97,Asia/Kolkata,1634908064,2021-10-22 18:37
Jamshedpur,Jharkhand,India,22.8,86.18,Asia/Kolkata,1634908074,2021-10-22 18:37
Deoghar,,Bangladesh,24.27,91.08,Asia/Dhaka,1634908084,2021-10-22 19:08
Hazaribagh,Jharkhand,India,23.98,85.35,Asia/Kolkata,1634908095,2021-10-22 18:38
Dhanbad,Jharkhand,India,23.8,86.45,Asia/Kolkata,1634908105,2021-10-22 18:38
Ranchi,Jharkhand,India,23.35,85.33,Asia/Kolkata,1634908115,2021-10-22 18:38
Bokaro,Jharkhand,India,23.78,85.97,Asia/Kolkata,1634908125,2021-10-22 18:38
Jamshedpur,Jharkhand,India,22.8,86.18,Asia/Kolkata,1634908136,2021-10-22 18:38
Deoghar,,Bangladesh,24.27,91.08,Asia/Dhaka,1634908146,2021-10-22 19:09
Hazaribagh,Jharkhand,India,23.98,85.35,Asia/Kolkata,1634908157,2021-10-22 18:39
Dhanbad,Jharkhand,India,23.8,86.45,Asia/Kolkata,1634908167,2021-10-22 18:39
Ranchi,Jharkhand,India,23.35,85.33,Asia/Kolkata,1634908177,2021-10-22 18:39
Bokaro,Jharkhand,India,23.78,85.97,Asia/Kolkata,1634908188,2021-10-22 18:39
Jamshedpur,Jharkhand,India,22.8,86.18,Asia/Kolkata,1634908198,2021-10-22 18:39
Deoghar,,Bangladesh,24.27,91.08,Asia/Dhaka,1634908209,2021-10-22 19:10
Hazaribagh,Jharkhand,India,23.98,85.35,Asia/Kolkata,1634908219,2021-10-22 18:40
Dhanbad,Jharkhand,India,23.8,86.45,Asia/Kolkata,1634908229,2021-10-22 18:40
Ranchi,Jharkhand,India,23.35,85.33,Asia/Kolkata,1634908240,2021-10-22 18:40
Bokaro,Jharkhand,India,23.78,85.97,Asia/Kolkata,1634908250,2021-10-22 18:40
Jamshedpur,Jharkhand,India,22.8,86.18,Asia/Kolkata,1634908260,2021-10-22 18:41
Deoghar,,Bangladesh,24.27,91.08,Asia/Dhaka,1634908271,2021-10-22 19:11
Hazaribagh,Jharkhand,India,23.98,85.35,Asia/Kolkata,1634908281,2021-10-22 18:41
Dhanbad,Jharkhand,India,23.8,86.45,Asia/Kolkata,1634908291,2021-10-22 18:41
Bengaluru,Karnataka,India,12.98,77.58,Asia/Kolkata,1634908302,2021-10-22 18:41
Mysore,Karnataka,India,12.31,76.65,Asia/Kolkata,1634908312,2021-10-22 18:41
Davangere,Karnataka,India,14.47,75.92,Asia/Kolkata,1634908322,2021-10-22 18:42
Mangalore,Karnataka,India,12.86,74.84,Asia/Kolkata,1634908332,2021-10-22 18:42
Dharwad,Karnataka,India,15.47,75.02,Asia/Kolkata,1634908343,2021-10-22 18:42
Belgaum,Karnataka,India,15.87,74.5,Asia/Kolkata,1634908353,2021-10-22 18:42
Bengaluru,Karnataka,India,12.98,77.58,Asia/Kolkata,1634908363,2021-10-22 18:42
Mysore,Karnataka,India,12.31,76.65,Asia/Kolkata,1634908374,2021-10-22 18:42
Davangere,Karnataka,India,14.47,75.92,Asia/Kolkata,1634908384,2021-10-22 18:43
Mangalore,Karnataka,India,12.86,74.84,Asia/Kolkata,1634908394,2021-10-22 18:43
Dharwad,Karnataka,India,15.47,75.02,Asia/Kolkata,1634908404,2021-10-22 18:43
Belgaum,Karnataka,India,15.87,74.5,Asia/Kolkata,1634908415,2021-10-22 18:43
Bengaluru,Karnataka,India,12.98,77.58,Asia/Kolkata,1634908425,2021-10-22 18:43
Mysore,Karnataka,India,12.31,76.65,Asia/Kolkata,1634908435,2021-10-22 18:43
Davangere,Karnataka,India,14.47,75.92,Asia/Kolkata,1634908446,2021-10-22 18:44
Mangalore,Karnataka,India,12.86,74.84,Asia/Kolkata,1634908456,2021-10-22 18:44
Dharwad,Karnataka,India,15.47,75.02,Asia/Kolkata,1634908467,2021-10-22 18:44
Belgaum,Karnataka,India,15.87,74.5,Asia/Kolkata,1634908477,2021-10-22 18:44
Bengaluru,Karnataka,India,12.98,77.58,Asia/Kolkata,1634908487,2021-10-22 18:44
Mysore,Karnataka,India,12.31,76.65,Asia/Kolkata,1634908497,2021-10-22 18:44
Davangere,Karnataka,India,14.47,75.92,Asia/Kolkata,1634908508,2021-10-22 18:45
Mangalore,Karnataka,India,12.86,74.84,Asia/Kolkata,1634908518,2021-10-22 18:45
Dharwad,Karnataka,India,15.47,75.02,Asia/Kolkata,1634908528,2021-10-22 18:45
Belgaum,Karnataka,India,15.87,74.5,Asia/Kolkata,1634908539,2021-10-22 18:45
Bengaluru,Karnataka,India,12.98,77.58,Asia/Kolkata,1634908549,2021-10-22 18:45
Mysore,Karnataka,India,12.31,76.65,Asia/Kolkata,1634908559,2021-10-22 18:45
Davangere,Karnataka,India,14.47,75.92,Asia/Kolkata,1634908569,2021-10-22 18:46
Mangalore,Karnataka,India,12.86,74.84,Asia/Kolkata,1634908580,2021-10-22 18:46
Dharwad,Karnataka,India,15.47,75.02,Asia/Kolkata,1634908590,2021-10-22 18:46
Belgaum,Karnataka,India,15.87,74.5,Asia/Kolkata,1634908600,2021-10-22 18:46
Bengaluru,Karnataka,India,12.98,77.58,Asia/Kolkata,1634908611,2021-10-22 18:46
Mysore,Karnataka,India,12.31,76.65,Asia/Kolkata,1634908621,2021-10-22 18:47
Davangere,Karnataka,India,14.47,75.92,Asia/Kolkata,1634908631,2021-10-22 18:47
Mangalore,Karnataka,India,12.86,74.84,Asia/Kolkata,1634908641,2021-10-22 18:47
Dharwad,Karnataka,India,15.47,75.02,Asia/Kolkata,1634908652,2021-10-22 18:47
Belgaum,Karnataka,India,15.87,74.5,Asia/Kolkata,1634908662,2021-10-22 18:47
Bengaluru,Karnataka,India,12.98,77.58,Asia/Kolkata,1634908672,2021-10-22 18:47
Mysore,Karnataka,India,12.31,76.65,Asia/Kolkata,1634908683,2021-10-22 18:48
Davangere,Karnataka,India,14.47,75.92,Asia/Kolkata,1634908693,2021-10-22 18:48
Mangalore,Karnataka,India,12.86,74.84,Asia/Kolkata,1634908703,2021-10-22 18:48
Dharwad,Karnataka,India,15.47,75.02,Asia/Kolkata,1634908713,2021-10-22 18:48
Belgaum,Karnataka,India,15.87,74.5,Asia/Kolkata,1634908724,2021-10-22 18:48
Bengaluru,Karnataka,India,12.98,77.58,Asia/Kolkata,1634908734,2021-10-22 18:48
Mysore,Karnataka,India,12.31,76.65,Asia/Kolkata,1634908745,2021-10-22 18:49
Davangere,Karnataka,India,14.47,75.92,Asia/Kolkata,1634908755,2021-10-22 18:49
Mangalore,Karnataka,India,12.86,74.84,Asia/Kolkata,1634908765,2021-10-22 18:49
Dharwad,Karnataka,India,15.47,75.02,Asia/Kolkata,1634908775,2021-10-22 18:49
Belgaum,Karnataka,India,15.87,74.5,Asia/Kolkata,1634908786,2021-10-22 18:49
Thiruvananthapuram,Kerala,India,8.51,76.96,Asia/Kolkata,1634908796,2021-10-22 18:49
Kochi,Kerala,India,9.97,76.23,Asia/Kolkata,1634908806,2021-10-22 18:50
Kozhikode,Kerala,India,11.25,75.77,Asia/Kolkata,1634908817,2021-10-22 18:50
Thrissur,Kerala,India,10.52,76.22,Asia/Kolkata,1634908827,2021-10-22 18:50
Malappuram,Kerala,India,11.07,76.07,Asia/Kolkata,1634908837,2021-10-22 18:50
Thiruvananthapuram,Kerala,India,8.51,76.96,Asia/Kolkata,1634908848,2021-10-22 18:50
Kochi,Kerala,India,9.97,76.23,Asia/Kolkata,1634908858,2021-10-22 18:50
Kozhikode,Kerala,India,11.25,75.77,Asia/Kolkata,1634908868,2021-10-22 18:51
Thrissur,Kerala,India,10.52,76.22,Asia/Kolkata,1634908878,2021-10-22 18:51
Malappuram,Kerala,India,11.07,76.07,Asia/Kolkata,1634908889,2021-10-22 18:51
Thiruvananthapuram,Kerala,India,8.51,76.96,Asia/Kolkata,1634908899,2021-10-22 18:51
Kochi,Kerala,India,9.97,76.23,Asia/Kolkata,1634908909,2021-10-22 18:51
Kozhikode,Kerala,India,11.25,75.77,Asia/Kolkata,1634908919,2021-10-22 18:51
Thrissur,Kerala,India,10.52,76.22,Asia/Kolkata,1634908930,2021-10-22 18:52
Malappuram,Kerala,India,11.07,76.07,Asia/Kolkata,1634908940,2021-10-22 18:52
Thiruvananthapuram,Kerala,India,8.51,76.96,Asia/Kolkata,1634908950,2021-10-22 18:52
Kochi,Kerala,India,9.97,76.23,Asia/Kolkata,1634908961,2021-10-22 18:52
Kozhikode,Kerala,India,11.25,75.77,Asia/Kolkata,1634908971,2021-10-22 18:52
Thrissur,Kerala,India,10.52,76.22,Asia/Kolkata,1634908981,2021-10-22 18:53
Malappuram,Kerala,India,11.07,76.07,Asia/Kolkata,1634908991,2021-10-22 18:53
Thiruvananthapuram,Kerala,India,8.51,76.96,Asia/Kolkata,1634909002,2021-10-22 18:53
Kochi,Kerala,India,9.97,76.23,Asia/Kolkata,1634909012,2021-10-22 18:53
Kozhikode,Kerala,India,11.25,75.77,Asia/Kolkata,1634909022,2021-10-22 18:53
Thrissur,Kerala,India,10.52,76.22,Asia/Kolkata,1634909033,2021-10-22 18:53
Malappuram,Kerala,India,11.07,76.07,Asia/Kolkata,1634909043,2021-10-22 18:54
Thiruvananthapuram,Kerala,India,8.51,76.96,Asia/Kolkata,1634909054,2021-10-22 18:54
Kochi,Kerala,India,9.97,76.23,Asia/Kolkata,1634909064,2021-10-22 18:54
Kozhikode,Kerala,India,11.25,75.77,Asia/Kolkata,1634909074,2021-10-22 18:54
Thrissur,Kerala,India,10.52,76.22,Asia/Kolkata,1634909084,2021-10-22 18:54
Malappuram,Kerala,India,11.07,76.07,Asia/Kolkata,1634909095,2021-10-22 18:54
Thiruvananthapuram,Kerala,India,8.51,76.96,Asia/Kolkata,1634909105,2021-10-22 18:55
Kochi,Kerala,India,9.97,76.23,Asia/Kolkata,1634909116,2021-10-22 18:55
Kozhikode,Kerala,India,11.25,75.77,Asia/Kolkata,1634909126,2021-10-22 18:55
Thrissur,Kerala,India,10.52,76.22,Asia/Kolkata,1634909136,2021-10-22 18:55
Malappuram,Kerala,India,11.07,76.07,Asia/Kolkata,1634909147,2021-10-22 18:55
Thiruvananthapuram,Kerala,India,8.51,76.96,Asia/Kolkata,1634909157,2021-10-22 18:55
Kochi,Kerala,India,9.97,76.23,Asia/Kolkata,1634909167,2021-10-22 18:56
Kozhikode,Kerala,India,11.25,75.77,Asia/Kolkata,1634909178,2021-10-22 18:56
Thrissur,Kerala,India,10.52,76.22,Asia/Kolkata,1634909188,2021-10-22 18:56
Malappuram,Kerala,India,11.07,76.07,Asia/Kolkata,1634909198,2021-10-22 18:56
Bhopal,Madhya Pradesh,India,23.27,77.4,Asia/Kolkata,1634909209,2021-10-22 18:56
Indore,Madhya Pradesh,India,22.72,75.83,Asia/Kolkata,1634909219,2021-10-22 18:56
Gwalior,Madhya Pradesh,India,26.22,78.18,Asia/Kolkata,1634909229,2021-10-22 18:57
Jabalpur,Madhya Pradesh,India,23.17,79.95,Asia/Kolkata,1634909239,2021-10-22 18:57
Ujjain,Madhya Pradesh,India,23.18,75.77,Asia/Kolkata,1634909250,2021-10-22 18:57
Sagar,Madhya Pradesh,India,23.83,78.72,Asia/Kolkata,1634909260,2021-10-22 18:57
Bhopal,Madhya Pradesh,India,23.27,77.4,Asia/Kolkata,1634909270,2021-10-22 18:57
Indore,Madhya Pradesh,India,22.72,75.83,Asia/Kolkata,1634909281,2021-10-22 18:58
Gwalior,Madhya Pradesh,India,26.22,78.18,Asia/Kolkata,1634909291,2021-10-22 18:58
Jabalpur,Madhya Pradesh,India,23.17,79.95,Asia/Kolkata,1634909301,2021-10-22 18:58
Ujjain,Madhya Pradesh,India,23.18,75.77,Asia/Kolkata,1634909312,2021-10-22 18:58
Sagar,Madhya Pradesh,India,23.83,78.72,Asia/Kolkata,1634909322,2021-10-22 18:58
Bhopal,Madhya Pradesh,India,23.27,77.4,Asia/Kolkata,1634909332,2021-10-22 18:58
Indore,Madhya Pradesh,India,22.72,75.83,Asia/Kolkata,1634909342,2021-10-22 18:59
Gwalior,Madhya Pradesh,India,26.22,78.18,Asia/Kolkata,1634909353,2021-10-22 18:59
Jabalpur,Madhya Pradesh,India,23.17,79.95,Asia/Kolkata,1634909363,2021-10-22 18:59
Ujjain,Madhya Pradesh,India,23.18,75.77,Asia/Kolkata,1634909373,2021-10-22 18:59
Sagar,Madhya Pradesh,India,23.83,78.72,Asia/Kolkata,1634909384,2021-10-22 18:59
Bhopal,Madhya Pradesh,India,23.27,77.4,Asia/Kolkata,1634909394,2021-10-22 18:59
Indore,Madhya Pradesh,India,22.72,75.83,Asia/Kolkata,1634909404,2021-10-22 19:00
Gwalior,Madhya Pradesh,India,26.22,78.18,Asia/Kolkata,1634909415,2021-10-22 19:00
Jabalpur,Madhya Pradesh,India,23.17,79.95,Asia/Kolkata,1634909425,2021-10-22 19:00
Ujjain,Madhya Pradesh,India,23.18,75.77,Asia/Kolkata,1634909436,2021-10-22 19:00
Sagar,Madhya Pradesh,India,23.83,78.72,Asia/Kolkata,1634909446,2021-10-22 19:00
Bhopal,Madhya Pradesh,India,23.27,77.4,Asia/Kolkata,1634909456,2021-10-22 19:00
Indore,Madhya Pradesh,India,22.72,75.83,Asia/Kolkata,1634909467,2021-10-22 19:01
Gwalior,Madhya Pradesh,India,26.22,78.18,Asia/Kolkata,1634909477,2021-10-22 19:01
Jabalpur,Madhya Pradesh,India,23.17,79.95,Asia/Kolkata,1634909487,2021-10-22 19:01
Ujjain,Madhya Pradesh,India,23.18,75.77,Asia/Kolkata,1634909498,2021-10-22 19:01
Sagar,Madhya Pradesh,India,23.83,78.72,Asia/Kolkata,1634909508,2021-10-22 19:01
Bhopal,Madhya Pradesh,India,23.27,77.4,Asia/Kolkata,1634909518,2021-10-22 19:01
Indore,Madhya Pradesh,India,22.72,75.83,Asia/Kolkata,1634909529,2021-10-22 19:02
Gwalior,Madhya Pradesh,India,26.22,78.18,Asia/Kolkata,1634909539,2021-10-22 19:02
Jabalpur,Madhya Pradesh,India,23.17,79.95,Asia/Kolkata,1634909549,2021-10-22 19:02
Ujjain,Madhya Pradesh,India,23.18,75.77,Asia/Kolkata,1634909560,2021-10-22 19:02
Sagar,Madhya Pradesh,India,23.83,78.72,Asia/Kolkata,1634909570,2021-10-22 19:02
Bhopal,Madhya Pradesh,India,23.27,77.4,Asia/Kolkata,1634909580,2021-10-22 19:03
Indore,Madhya Pradesh,India,22.72,75.83,Asia/Kolkata,1634909591,2021-10-22 19:03
Gwalior,Madhya Pradesh,India,26.22,78.18,Asia/Kolkata,1634909601,2021-10-22 19:03
Jabalpur,Madhya Pradesh,India,23.17,79.95,Asia/Kolkata,1634909611,2021-10-22 19:03
Ujjain,Madhya Pradesh,India,23.18,75.77,Asia/Kolkata,1634909622,2021-10-22 19:03
Sagar,Madhya Pradesh,India,23.83,78.72,Asia/Kolkata,1634909632,2021-10-22 19:03
Bhopal,Madhya Pradesh,India,23.27,77.4,Asia/Kolkata,1634909642,2021-10-22 19:04
Indore,Madhya Pradesh,India,22.72,75.83,Asia/Kolkata,1634909654,2021-10-22 19:04
Gwalior,Madhya Pradesh,India,26.22,78.18,Asia/Kolkata,1634909664,2021-10-22 19:04
Jabalpur,Madhya Pradesh,India,23.17,79.95,Asia/Kolkata,1634909674,2021-10-22 19:04
Ujjain,Madhya Pradesh,India,23.18,75.77,Asia/Kolkata,1634909684,2021-10-22 19:04
Sagar,Madhya Pradesh,India,23.83,78.72,Asia/Kolkata,1634909695,2021-10-22 19:04
Mumbai,Maharashtra,India,18.98,72.83,Asia/Kolkata,1634909705,2021-10-22 19:05
Pune,Maharashtra,India,18.53,73.87,Asia/Kolkata,1634909715,2021-10-22 19:05
Nagpur,Maharashtra,India,21.15,79.1,Asia/Kolkata,1634909726,2021-10-22 19:05
Aurangabad,Maharashtra,India,19.88,75.33,Asia/Kolkata,1634909746,2021-10-22 19:05
Solapur,Maharashtra,India,17.68,75.92,Asia/Kolkata,1634909757,2021-10-22 19:05
Mumbai,Maharashtra,India,18.98,72.83,Asia/Kolkata,1634909767,2021-10-22 19:06
Pune,Maharashtra,India,18.53,73.87,Asia/Kolkata,1634909777,2021-10-22 19:06
Nagpur,Maharashtra,India,21.15,79.1,Asia/Kolkata,1634909788,2021-10-22 19:06
Aurangabad,Maharashtra,India,19.88,75.33,Asia/Kolkata,1634909808,2021-10-22 19:06
Solapur,Maharashtra,India,17.68,75.92,Asia/Kolkata,1634909819,2021-10-22 19:06
Mumbai,Maharashtra,India,18.98,72.83,Asia/Kolkata,1634909829,2021-10-22 19:07
Pune,Maharashtra,India,18.53,73.87,Asia/Kolkata,1634909839,2021-10-22 19:07
Nagpur,Maharashtra,India,21.15,79.1,Asia/Kolkata,1634909849,2021-10-22 19:07
Aurangabad,Maharashtra,India,19.88,75.33,Asia/Kolkata,1634909870,2021-10-22 19:07
Solapur,Maharashtra,India,17.68,75.92,Asia/Kolkata,1634909880,2021-10-22 19:08
Mumbai,Maharashtra,India,18.98,72.83,Asia/Kolkata,1634909891,2021-10-22 19:08
Pune,Maharashtra,India,18.53,73.87,Asia/Kolkata,1634909901,2021-10-22 19:08
Nagpur,Maharashtra,India,21.15,79.1,Asia/Kolkata,1634909911,2021-10-22 19:08
Aurangabad,Maharashtra,India,19.88,75.33,Asia/Kolkata,1634909932,2021-10-22 19:08
Solapur,Maharashtra,India,17.68,75.92,Asia/Kolkata,1634909942,2021-10-22 19:09
Mumbai,Maharashtra,India,18.98,72.83,Asia/Kolkata,1634909952,2021-10-22 19:09
Pune,Maharashtra,India,18.53,73.87,Asia/Kolkata,1634909963,2021-10-22 19:09
Nagpur,Maharashtra,India,21.15,79.1,Asia/Kolkata,1634909973,2021-10-22 19:09
Aurangabad,Maharashtra,India,19.88,75.33,Asia/Kolkata,1634909993,2021-10-22 19:09
Solapur,Maharashtra,India,17.68,75.92,Asia/Kolkata,1634910004,2021-10-22 19:10
Mumbai,Maharashtra,India,18.98,72.83,Asia/Kolkata,1634910014,2021-10-22 19:10
Pune,Maharashtra,India,18.53,73.87,Asia/Kolkata,1634910024,2021-10-22 19:10
Nagpur,Maharashtra,India,21.15,79.1,Asia/Kolkata,1634910035,2021-10-22 19:10
Aurangabad,Maharashtra,India,19.88,75.33,Asia/Kolkata,1634910055,2021-10-22 19:10
Solapur,Maharashtra,India,17.68,75.92,Asia/Kolkata,1634910066,2021-10-22 19:11
Mumbai,Maharashtra,India,18.98,72.83,Asia/Kolkata,1634910076,2021-10-22 19:11
Pune,Maharashtra,India,18.53,73.87,Asia/Kolkata,1634910086,2021-10-22 19:11
Nagpur,Maharashtra,India,21.15,79.1,Asia/Kolkata,1634910097,2021-10-22 19:11
Aurangabad,Maharashtra,India,19.88,75.33,Asia/Kolkata,1634910117,2021-10-22 19:11
Solapur,Maharashtra,India,17.68,75.92,Asia/Kolkata,1634910127,2021-10-22 19:12
Mumbai,Maharashtra,India,18.98,72.83,Asia/Kolkata,1634910138,2021-10-22 19:12
Pune,Maharashtra,India,18.53,73.87,Asia/Kolkata,1634910148,2021-10-22 19:12
Nagpur,Maharashtra,India,21.15,79.1,Asia/Kolkata,1634910158,2021-10-22 19:12
Aurangabad,Maharashtra,India,19.88,75.33,Asia/Kolkata,1634910179,2021-10-22 19:12
Solapur,Maharashtra,India,17.68,75.92,Asia/Kolkata,1634910189,2021-10-22 19:13
Imphal,Manipur,India,24.82,93.95,Asia/Kolkata,1634910200,2021-10-22 19:13
Bishnupur,West Bengal,India,22.38,88.27,Asia/Kolkata,1634910210,2021-10-22 19:13
Ukhrul,Manipur,India,25.12,94.37,Asia/Kolkata,1634910220,2021-10-22 19:13
Tamenglong,Manipur,India,24.97,93.55,Asia/Kolkata,1634910231,2021-10-22 19:13
Chandel,Goa,India,15.73,73.88,Asia/Kolkata,1634910241,2021-10-22 19:14
Imphal,Manipur,India,24.82,93.95,Asia/Kolkata,1634910262,2021-10-22 19:14
Bishnupur,West Bengal,India,22.38,88.27,Asia/Kolkata,1634910272,2021-10-22 19:14
Ukhrul,Manipur,India,25.12,94.37,Asia/Kolkata,1634910282,2021-10-22 19:14
Tamenglong,Manipur,India,24.97,93.55,Asia/Kolkata,1634910293,2021-10-22 19:14
Chandel,Goa,India,15.73,73.88,Asia/Kolkata,1634910303,2021-10-22 19:15
Imphal,Manipur,India,24.82,93.95,Asia/Kolkata,1634910323,2021-10-22 19:15
Bishnupur,West Bengal,India,22.38,88.27,Asia/Kolkata,1634910334,2021-10-22 19:15
Ukhrul,Manipur,India,25.12,94.37,Asia/Kolkata,1634910344,2021-10-22 19:15
Tamenglong,Manipur,India,24.97,93.55,Asia/Kolkata,1634910354,2021-10-22 19:15
Chandel,Goa,India,15.73,73.88,Asia/Kolkata,1634910365,2021-10-22 19:16
Imphal,Manipur,India,24.82,93.95,Asia/Kolkata,1634910386,2021-10-22 19:16
Bishnupur,West Bengal,India,22.38,88.27,Asia/Kolkata,1634910396,2021-10-22 19:16
Ukhrul,Manipur,India,25.12,94.37,Asia/Kolkata,1634910406,2021-10-22 19:16
Tamenglong,Manipur,India,24.97,93.55,Asia/Kolkata,1634910417,2021-10-22 19:16
Chandel,Goa,India,15.73,73.88,Asia/Kolkata,1634910427,2021-10-22 19:17
Imphal,Manipur,India,24.82,93.95,Asia/Kolkata,1634910449,2021-10-22 19:17
Bishnupur,West Bengal,India,22.38,88.27,Asia/Kolkata,1634910459,2021-10-22 19:17
Ukhrul,Manipur,India,25.12,94.37,Asia/Kolkata,1634910469,2021-10-22 19:17
Tamenglong,Manipur,India,24.97,93.55,Asia/Kolkata,1634910480,2021-10-22 19:18
Chandel,Goa,India,15.73,73.88,Asia/Kolkata,1634910490,2021-10-22 19:18
Imphal,Manipur,India,24.82,93.95,Asia/Kolkata,1634910511,2021-10-22 19:18
Bishnupur,West Bengal,India,22.38,88.27,Asia/Kolkata,1634910521,2021-10-22 19:18
Ukhrul,Manipur,India,25.12,94.37,Asia/Kolkata,1634910531,2021-10-22 19:18
Tamenglong,Manipur,India,24.97,93.55,Asia/Kolkata,1634910542,2021-10-22 19:19
Chandel,Goa,India,15.73,73.88,Asia/Kolkata,1634910552,2021-10-22 19:19
Imphal,Manipur,India,24.82,93.95,Asia/Kolkata,1634910573,2021-10-22 19:19
Bishnupur,West Bengal,India,22.38,88.27,Asia/Kolkata,1634910583,2021-10-22 19:19
Ukhrul,Manipur,India,25.12,94.37,Asia/Kolkata,1634910593,2021-10-22 19:19
Tamenglong,Manipur,India,24.97,93.55,Asia/Kolkata,1634910603,2021-10-22 19:20
Chandel,Goa,India,15.73,73.88,Asia/Kolkata,1634910614,2021-10-22 19:20
Imphal,Manipur,India,24.82,93.95,Asia/Kolkata,1634910634,2021-10-22 19:20
Bishnupur,West Bengal,India,22.38,88.27,Asia/Kolkata,1634910644,2021-10-22 19:20
Ukhrul,Manipur,India,25.12,94.37,Asia/Kolkata,1634910655,2021-10-22 19:20
Tamenglong,Manipur,India,24.97,93.55,Asia/Kolkata,1634910665,2021-10-22 19:21
Chandel,Goa,India,15.73,73.88,Asia/Kolkata,1634910675,2021-10-22 19:21
Shillong,Meghalaya,India,25.58,91.87,Asia/Kolkata,1634910696,2021-10-22 19:21
Cherrapunji,Meghalaya,India,25.3,91.7,Asia/Kolkata,1634910706,2021-10-22 19:21
Tura,Meghalaya,India,25.52,90.22,Asia/Kolkata,1634910716,2021-10-22 19:21
Jowai,Meghalaya,India,25.45,92.2,Asia/Kolkata,1634910727,2021-10-22 19:22
Baghmara,West Bengal,India,22.25,88.87,Asia/Kolkata,1634910737,2021-10-22 19:22
Nongpoh,Meghalaya,India,25.9,91.88,Asia/Kolkata,1634910747,2021-10-22 19:22
Shillong,Meghalaya,India,25.58,91.87,Asia/Kolkata,1634910758,2021-10-22 19:22
Cherrapunji,Meghalaya,India,25.3,91.7,Asia/Kolkata,1634910768,2021-10-22 19:22
Tura,Meghalaya,India,25.52,90.22,Asia/Kolkata,1634910778,2021-10-22 19:22
Jowai,Meghalaya,India,25.45,92.2,Asia/Kolkata,1634910788,2021-10-22 19:23
Baghmara,West Bengal,India,22.25,88.87,Asia/Kolkata,1634910799,2021-10-22 19:23
Nongpoh,Meghalaya,India,25.9,91.88,Asia/Kolkata,1634910809,2021-10-22 19:23
Shillong,Meghalaya,India,25.58,91.87,Asia/Kolkata,1634910819,2021-10-22 19:23
Cherrapunji,Meghalaya,India,25.3,91.7,Asia/Kolkata,1634910830,2021-10-22 19:23
Tura,Meghalaya,India,25.52,90.22,Asia/Kolkata,1634910840,2021-10-22 19:24
Jowai,Meghalaya,India,25.45,92.2,Asia/Kolkata,1634910851,2021-10-22 19:24
Baghmara,West Bengal,India,22.25,88.87,Asia/Kolkata,1634910861,2021-10-22 19:24
Nongpoh,Meghalaya,India,25.9,91.88,Asia/Kolkata,1634910871,2021-10-22 19:24
Shillong,Meghalaya,India,25.58,91.87,Asia/Kolkata,1634910882,2021-10-22 19:24
Cherrapunji,Meghalaya,India,25.3,91.7,Asia/Kolkata,1634910892,2021-10-22 19:24
Tura,Meghalaya,India,25.52,90.22,Asia/Kolkata,1634910902,2021-10-22 19:25
Jowai,Meghalaya,India,25.45,92.2,Asia/Kolkata,1634910912,2021-10-22 19:25
Baghmara,West Bengal,India,22.25,88.87,Asia/Kolkata,1634910922,2021-10-22 19:25
Nongpoh,Meghalaya,India,25.9,91.88,Asia/Kolkata,1634910933,2021-10-22 19:25
Shillong,Meghalaya,India,25.58,91.87,Asia/Kolkata,1634910943,2021-10-22 19:25
Cherrapunji,Meghalaya,India,25.3,91.7,Asia/Kolkata,1634910953,2021-10-22 19:25
Tura,Meghalaya,India,25.52,90.22,Asia/Kolkata,1634910964,2021-10-22 19:26
Jowai,Meghalaya,India,25.45,92.2,Asia/Kolkata,1634910974,2021-10-22 19:26
Baghmara,West Bengal,India,22.25,88.87,Asia/Kolkata,1634910984,2021-10-22 19:26
Nongpoh,Meghalaya,India,25.9,91.88,Asia/Kolkata,1634910995,2021-10-22 19:26
Shillong,Meghalaya,India,25.58,91.87,Asia/Kolkata,1634911005,2021-10-22 19:26
Cherrapunji,Meghalaya,India,25.3,91.7,Asia/Kolkata,1634911015,2021-10-22 19:26
Tura,Meghalaya,India,25.52,90.22,Asia/Kolkata,1634911026,2021-10-22 19:27
Jowai,Meghalaya,India,25.45,92.2,Asia/Kolkata,1634911036,2021-10-22 19:27
Baghmara,West Bengal,India,22.25,88.87,Asia/Kolkata,1634911046,2021-10-22 19:27
Nongpoh,Meghalaya,India,25.9,91.88,Asia/Kolkata,1634911057,2021-10-22 19:27
Shillong,Meghalaya,India,25.58,91.87,Asia/Kolkata,1634911067,2021-10-22 19:27
Cherrapunji,Meghalaya,India,25.3,91.7,Asia/Kolkata,1634911077,2021-10-22 19:27
Tura,Meghalaya,India,25.52,90.22,Asia/Kolkata,1634911089,2021-10-22 19:28
Jowai,Meghalaya,India,25.45,92.2,Asia/Kolkata,1634911099,2021-10-22 19:28
Baghmara,West Bengal,India,22.25,88.87,Asia/Kolkata,1634911109,2021-10-22 19:28
Nongpoh,Meghalaya,India,25.9,91.88,Asia/Kolkata,1634911120,2021-10-22 19:28
Shillong,Meghalaya,India,25.58,91.87,Asia/Kolkata,1634911130,2021-10-22 19:28
Cherrapunji,Meghalaya,India,25.3,91.7,Asia/Kolkata,1634911140,2021-10-22 19:29
Tura,Meghalaya,India,25.52,90.22,Asia/Kolkata,1634911151,2021-10-22 19:29
Jowai,Meghalaya,India,25.45,92.2,Asia/Kolkata,1634911161,2021-10-22 19:29
Baghmara,West Bengal,India,22.25,88.87,Asia/Kolkata,1634911171,2021-10-22 19:29
Nongpoh,Meghalaya,India,25.9,91.88,Asia/Kolkata,1634911182,2021-10-22 19:29
Aizawl,Mizoram,India,23.72,92.72,Asia/Kolkata,1634911192,2021-10-22 19:29
Lunglei,Mizoram,India,22.88,92.73,Asia/Dhaka,1634911202,2021-10-22 20:00
Serchhip,Mizoram,India,23.3,92.83,Asia/Kolkata,1634911213,2021-10-22 19:30
Tuipang,Mizoram,India,22.32,93.03,Asia/Kolkata,1634911233,2021-10-22 19:30
Mamit,Mizoram,India,23.93,92.48,Asia/Dhaka,1634911244,2021-10-22 20:00
Aizawl,Mizoram,India,23.72,92.72,Asia/Kolkata,1634911254,2021-10-22 19:30
Lunglei,Mizoram,India,22.88,92.73,Asia/Dhaka,1634911264,2021-10-22 20:01
Serchhip,Mizoram,India,23.3,92.83,Asia/Kolkata,1634911275,2021-10-22 19:31
Tuipang,Mizoram,India,22.32,93.03,Asia/Kolkata,1634911295,2021-10-22 19:31
Mamit,Mizoram,India,23.93,92.48,Asia/Dhaka,1634911306,2021-10-22 20:01
Aizawl,Mizoram,India,23.72,92.72,Asia/Kolkata,1634911316,2021-10-22 19:31
Lunglei,Mizoram,India,22.88,92.73,Asia/Dhaka,1634911326,2021-10-22 20:02
Serchhip,Mizoram,India,23.3,92.83,Asia/Kolkata,1634911337,2021-10-22 19:32
Tuipang,Mizoram,India,22.32,93.03,Asia/Kolkata,1634911357,2021-10-22 19:32
Mamit,Mizoram,India,23.93,92.48,Asia/Dhaka,1634911367,2021-10-22 20:02
Aizawl,Mizoram,India,23.72,92.72,Asia/Kolkata,1634911378,2021-10-22 19:32
Lunglei,Mizoram,India,22.88,92.73,Asia/Dhaka,1634911388,2021-10-22 20:03
Serchhip,Mizoram,India,23.3,92.83,Asia/Kolkata,1634911398,2021-10-22 19:33
Tuipang,Mizoram,India,22.32,93.03,Asia/Kolkata,1634911419,2021-10-22 19:33
Mamit,Mizoram,India,23.93,92.48,Asia/Dhaka,1634911429,2021-10-22 20:03
Aizawl,Mizoram,India,23.72,92.72,Asia/Kolkata,1634911439,2021-10-22 19:33
Lunglei,Mizoram,India,22.88,92.73,Asia/Dhaka,1634911450,2021-10-22 20:04
Serchhip,Mizoram,India,23.3,92.83,Asia/Kolkata,1634911460,2021-10-22 19:34
Tuipang,Mizoram,India,22.32,93.03,Asia/Kolkata,1634911480,2021-10-22 19:34
Mamit,Mizoram,India,23.93,92.48,Asia/Dhaka,1634911491,2021-10-22 20:04
Aizawl,Mizoram,India,23.72,92.72,Asia/Kolkata,1634911501,2021-10-22 19:35
Lunglei,Mizoram,India,22.88,92.73,Asia/Dhaka,1634911511,2021-10-22 20:05
Serchhip,Mizoram,India,23.3,92.83,Asia/Kolkata,1634911522,2021-10-22 19:35
Tuipang,Mizoram,India,22.32,93.03,Asia/Kolkata,1634911542,2021-10-22 19:35
Mamit,Mizoram,India,23.93,92.48,Asia/Dhaka,1634911552,2021-10-22 20:05
Aizawl,Mizoram,India,23.72,92.72,Asia/Kolkata,1634911563,2021-10-22 19:36
Lunglei,Mizoram,India,22.88,92.73,Asia/Dhaka,1634911573,2021-10-22 20:06
Serchhip,Mizoram,India,23.3,92.83,Asia/Kolkata,1634911583,2021-10-22 19:36
Tuipang,Mizoram,India,22.32,93.03,Asia/Kolkata,1634911604,2021-10-22 19:36
Mamit,Mizoram,India,23.93,92.48,Asia/Dhaka,1634911614,2021-10-22 20:06
Aizawl,Mizoram,India,23.72,92.72,Asia/Kolkata,1634911624,2021-10-22 19:37
Lunglei,Mizoram,India,22.88,92.73,Asia/Dhaka,1634911635,2021-10-22 20:07
Serchhip,Mizoram,India,23.3,92.83,Asia/Kolkata,1634911645,2021-10-22 19:37
Tuipang,Mizoram,India,22.32,93.03,Asia/Kolkata,1634911666,2021-10-22 19:37
Mamit,Mizoram,India,23.93,92.48,Asia/Dhaka,1634911676,2021-10-22 20:07
Kohima,Nagaland,India,25.67,94.12,Asia/Kolkata,1634911686,2021-10-22 19:38
Tuensang,Nagaland,India,26.28,94.83,Asia/Kolkata,1634911696,2021-10-22 19:38
Zunheboto,Nagaland,India,25.97,94.52,Asia/Kolkata,1634911710,2021-10-22 19:38
Mokokchung,Nagaland,India,26.33,94.53,Asia/Kolkata,1634911720,2021-10-22 19:38
Barisal Sadar,,Bangladesh,22.7,90.37,Asia/Dhaka,1634911731,2021-10-22 20:08
Phek,Manipur,India,25.67,94.5,Asia/Kolkata,1634911741,2021-10-22 19:39
Kohima,Nagaland,India,25.67,94.12,Asia/Kolkata,1634911752,2021-10-22 19:39
Tuensang,Nagaland,India,26.28,94.83,Asia/Kolkata,1634911762,2021-10-22 19:39
Zunheboto,Nagaland,India,25.97,94.52,Asia/Kolkata,1634911772,2021-10-22 19:39
Mokokchung,Nagaland,India,26.33,94.53,Asia/Kolkata,1634911783,2021-10-22 19:39
Barisal Sadar,,Bangladesh,22.7,90.37,Asia/Dhaka,1634911793,2021-10-22 20:09
Phek,Manipur,India,25.67,94.5,Asia/Kolkata,1634911803,2021-10-22 19:40
Kohima,Nagaland,India,25.67,94.12,Asia/Kolkata,1634911813,2021-10-22 19:40
Tuensang,Nagaland,India,26.28,94.83,Asia/Kolkata,1634911824,2021-10-22 19:40
Zunheboto,Nagaland,India,25.97,94.52,Asia/Kolkata,1634911834,2021-10-22 19:40
Mokokchung,Nagaland,India,26.33,94.53,Asia/Kolkata,1634911844,2021-10-22 19:40
Barisal Sadar,,Bangladesh,22.7,90.37,Asia/Dhaka,1634911855,2021-10-22 20:10
Phek,Manipur,India,25.67,94.5,Asia/Kolkata,1634911865,2021-10-22 19:41
Kohima,Nagaland,India,25.67,94.12,Asia/Kolkata,1634911875,2021-10-22 19:41
Tuensang,Nagaland,India,26.28,94.83,Asia/Kolkata,1634911886,2021-10-22 19:41
Zunheboto,Nagaland,India,25.97,94.52,Asia/Kolkata,1634911896,2021-10-22 19:41
Mokokchung,Nagaland,India,26.33,94.53,Asia/Kolkata,1634911906,2021-10-22 19:41
Barisal Sadar,,Bangladesh,22.7,90.37,Asia/Dhaka,1634911917,2021-10-22 20:11
Phek,Manipur,India,25.67,94.5,Asia/Kolkata,1634911927,2021-10-22 19:42
Kohima,Nagaland,India,25.67,94.12,Asia/Kolkata,1634911937,2021-10-22 19:42
Tuensang,Nagaland,India,26.28,94.83,Asia/Kolkata,1634911948,2021-10-22 19:42
Zunheboto,Nagaland,India,25.97,94.52,Asia/Kolkata,1634911958,2021-10-22 19:42
Mokokchung,Nagaland,India,26.33,94.53,Asia/Kolkata,1634911968,2021-10-22 19:42
Barisal Sadar,,Bangladesh,22.7,90.37,Asia/Dhaka,1634911979,2021-10-22 20:12
Phek,Manipur,India,25.67,94.5,Asia/Kolkata,1634911989,2021-10-22 19:43
Kohima,Nagaland,India,25.67,94.12,Asia/Kolkata,1634911999,2021-10-22 19:43
Tuensang,Nagaland,India,26.28,94.83,Asia/Kolkata,1634912010,2021-10-22 19:43
Zunheboto,Nagaland,India,25.97,94.52,Asia/Kolkata,1634912020,2021-10-22 19:43
Mokokchung,Nagaland,India,26.33,94.53,Asia/Kolkata,1634912030,2021-10-22 19:43
Barisal Sadar,,Bangladesh,22.7,90.37,Asia/Dhaka,1634912041,2021-10-22 20:14
Phek,Manipur,India,25.67,94.5,Asia/Kolkata,1634912051,2021-10-22 19:44
Kohima,Nagaland,India,25.67,94.12,Asia/Kolkata,1634912062,2021-10-22 19:44
Tuensang,Nagaland,India,26.28,94.83,Asia/Kolkata,1634912072,2021-10-22 19:44
Zunheboto,Nagaland,India,25.97,94.52,Asia/Kolkata,1634912082,2021-10-22 19:44
Mokokchung,Nagaland,India,26.33,94.53,Asia/Kolkata,1634912093,2021-10-22 19:44
Barisal Sadar,,Bangladesh,22.7,90.37,Asia/Dhaka,1634912103,2021-10-22 20:15
Phek,Manipur,India,25.67,94.5,Asia/Kolkata,1634912113,2021-10-22 19:45
Kohima,Nagaland,India,25.67,94.12,Asia/Kolkata,1634912123,2021-10-22 19:45
Tuensang,Nagaland,India,26.28,94.83,Asia/Kolkata,1634912134,2021-10-22 19:45
Zunheboto,Nagaland,India,25.97,94.52,Asia/Kolkata,1634912144,2021-10-22 19:45
Mokokchung,Nagaland,India,26.33,94.53,Asia/Kolkata,1634912154,2021-10-22 19:45
Barisal Sadar,,Bangladesh,22.7,90.37,Asia/Dhaka,1634912165,2021-10-22 20:16
Phek,Manipur,India,25.67,94.5,Asia/Kolkata,1634912175,2021-10-22 19:46
Bhubaneswar,Orissa,India,20.23,85.83,Asia/Kolkata,1634912185,2021-10-22 19:46
Rourkela,Orissa,India,22.2,84.88,Asia/Kolkata,1634912196,2021-10-22 19:46
Cuttack,Orissa,India,20.5,85.83,Asia/Kolkata,1634912206,2021-10-22 19:46
Brahmapur,Orissa,India,19.32,84.78,Asia/Kolkata,1634912216,2021-10-22 19:46
Puri,Orissa,India,19.8,85.85,Asia/Kolkata,1634912227,2021-10-22 19:47
Sambalpur,Orissa,India,21.45,83.97,Asia/Kolkata,1634912237,2021-10-22 19:47
Bhubaneswar,Orissa,India,20.23,85.83,Asia/Kolkata,1634912247,2021-10-22 19:47
Rourkela,Orissa,India,22.2,84.88,Asia/Kolkata,1634912258,2021-10-22 19:47
Cuttack,Orissa,India,20.5,85.83,Asia/Kolkata,1634912268,2021-10-22 19:47
Brahmapur,Orissa,India,19.32,84.78,Asia/Kolkata,1634912279,2021-10-22 19:47
Puri,Orissa,India,19.8,85.85,Asia/Kolkata,1634912289,2021-10-22 19:48
Sambalpur,Orissa,India,21.45,83.97,Asia/Kolkata,1634912299,2021-10-22 19:48
Bhubaneswar,Orissa,India,20.23,85.83,Asia/Kolkata,1634912310,2021-10-22 19:48
Rourkela,Orissa,India,22.2,84.88,Asia/Kolkata,1634912320,2021-10-22 19:48
Cuttack,Orissa,India,20.5,85.83,Asia/Kolkata,1634912330,2021-10-22 19:48
Brahmapur,Orissa,India,19.32,84.78,Asia/Kolkata,1634912341,2021-10-22 19:49
Puri,Orissa,India,19.8,85.85,Asia/Kolkata,1634912351,2021-10-22 19:49
Sambalpur,Orissa,India,21.45,83.97,Asia/Kolkata,1634912361,2021-10-22 19:49
Bhubaneswar,Orissa,India,20.23,85.83,Asia/Kolkata,1634912372,2021-10-22 19:49
Rourkela,Orissa,India,22.2,84.88,Asia/Kolkata,1634912382,2021-10-22 19:49
Cuttack,Orissa,India,20.5,85.83,Asia/Kolkata,1634912392,2021-10-22 19:49
Brahmapur,Orissa,India,19.32,84.78,Asia/Kolkata,1634912402,2021-10-22 19:50
Puri,Orissa,India,19.8,85.85,Asia/Kolkata,1634912413,2021-10-22 19:50
Sambalpur,Orissa,India,21.45,83.97,Asia/Kolkata,1634912423,2021-10-22 19:50
Bhubaneswar,Orissa,India,20.23,85.83,Asia/Kolkata,1634912434,2021-10-22 19:50
Rourkela,Orissa,India,22.2,84.88,Asia/Kolkata,1634912444,2021-10-22 19:50
Cuttack,Orissa,India,20.5,85.83,Asia/Kolkata,1634912455,2021-10-22 19:50
Brahmapur,Orissa,India,19.32,84.78,Asia/Kolkata,1634912465,2021-10-22 19:51
Puri,Orissa,India,19.8,85.85,Asia/Kolkata,1634912475,2021-10-22 19:51
Sambalpur,Orissa,India,21.45,83.97,Asia/Kolkata,1634912486,2021-10-22 19:51
Bhubaneswar,Orissa,India,20.23,85.83,Asia/Kolkata,1634912496,2021-10-22 19:51
Rourkela,Orissa,India,22.2,84.88,Asia/Kolkata,1634912506,2021-10-22 19:51
Cuttack,Orissa,India,20.5,85.83,Asia/Kolkata,1634912517,2021-10-22 19:51
Brahmapur,Orissa,India,19.32,84.78,Asia/Kolkata,1634912527,2021-10-22 19:52
Puri,Orissa,India,19.8,85.85,Asia/Kolkata,1634912537,2021-10-22 19:52
Sambalpur,Orissa,India,21.45,83.97,Asia/Kolkata,1634912548,2021-10-22 19:52
Bhubaneswar,Orissa,India,20.23,85.83,Asia/Kolkata,1634912558,2021-10-22 19:52
Rourkela,Orissa,India,22.2,84.88,Asia/Kolkata,1634912568,2021-10-22 19:52
Cuttack,Orissa,India,20.5,85.83,Asia/Kolkata,1634912579,2021-10-22 19:52
Brahmapur,Orissa,India,19.32,84.78,Asia/Kolkata,1634912589,2021-10-22 19:53
Puri,Orissa,India,19.8,85.85,Asia/Kolkata,1634912599,2021-10-22 19:53
Sambalpur,Orissa,India,21.45,83.97,Asia/Kolkata,1634912610,2021-10-22 19:53
Bhubaneswar,Orissa,India,20.23,85.83,Asia/Kolkata,1634912620,2021-10-22 19:53
Rourkela,Orissa,India,22.2,84.88,Asia/Kolkata,1634912630,2021-10-22 19:53
Cuttack,Orissa,India,20.5,85.83,Asia/Kolkata,1634912641,2021-10-22 19:54
Brahmapur,Orissa,India,19.32,84.78,Asia/Kolkata,1634912651,2021-10-22 19:54
Puri,Orissa,India,19.8,85.85,Asia/Kolkata,1634912661,2021-10-22 19:54
Sambalpur,Orissa,India,21.45,83.97,Asia/Kolkata,1634912671,2021-10-22 19:54
Chandigarh,Chandigarh,India,30.74,76.79,Asia/Kolkata,1634912682,2021-10-22 19:54
Amritsar,Punjab,India,31.63,74.87,Asia/Kolkata,1634912692,2021-10-22 19:54
Jalandhar,Punjab,India,31.33,75.58,Asia/Kolkata,1634912702,2021-10-22 19:55
Ludhiana,Punjab,India,30.9,75.85,Asia/Kolkata,1634912713,2021-10-22 19:55
Patiala,Punjab,India,30.33,76.4,Asia/Kolkata,1634912723,2021-10-22 19:55
Kapurthala,Punjab,India,31.38,75.38,Asia/Kolkata,1634912733,2021-10-22 19:55
Chandigarh,Chandigarh,India,30.74,76.79,Asia/Kolkata,1634912743,2021-10-22 19:55
Amritsar,Punjab,India,31.63,74.87,Asia/Kolkata,1634912754,2021-10-22 19:55
Jalandhar,Punjab,India,31.33,75.58,Asia/Kolkata,1634912764,2021-10-22 19:56
Ludhiana,Punjab,India,30.9,75.85,Asia/Kolkata,1634912774,2021-10-22 19:56
Patiala,Punjab,India,30.33,76.4,Asia/Kolkata,1634912785,2021-10-22 19:56
Kapurthala,Punjab,India,31.38,75.38,Asia/Kolkata,1634912795,2021-10-22 19:56
Chandigarh,Chandigarh,India,30.74,76.79,Asia/Kolkata,1634912805,2021-10-22 19:56
Amritsar,Punjab,India,31.63,74.87,Asia/Kolkata,1634912815,2021-10-22 19:56
Jalandhar,Punjab,India,31.33,75.58,Asia/Kolkata,1634912826,2021-10-22 19:57
Ludhiana,Punjab,India,30.9,75.85,Asia/Kolkata,1634912836,2021-10-22 19:57
Patiala,Punjab,India,30.33,76.4,Asia/Kolkata,1634912846,2021-10-22 19:57
Kapurthala,Punjab,India,31.38,75.38,Asia/Kolkata,1634912857,2021-10-22 19:57
Chandigarh,Chandigarh,India,30.74,76.79,Asia/Kolkata,1634912867,2021-10-22 19:57
Amritsar,Punjab,India,31.63,74.87,Asia/Kolkata,1634912878,2021-10-22 19:57
Jalandhar,Punjab,India,31.33,75.58,Asia/Kolkata,1634912888,2021-10-22 19:58
Ludhiana,Punjab,India,30.9,75.85,Asia/Kolkata,1634912898,2021-10-22 19:58
Patiala,Punjab,India,30.33,76.4,Asia/Kolkata,1634912909,2021-10-22 19:58
Kapurthala,Punjab,India,31.38,75.38,Asia/Kolkata,1634912919,2021-10-22 19:58
Chandigarh,Chandigarh,India,30.74,76.79,Asia/Kolkata,1634912930,2021-10-22 19:58
Amritsar,Punjab,India,31.63,74.87,Asia/Kolkata,1634912941,2021-10-22 19:59
Jalandhar,Punjab,India,31.33,75.58,Asia/Kolkata,1634912951,2021-10-22 19:59
Ludhiana,Punjab,India,30.9,75.85,Asia/Kolkata,1634912961,2021-10-22 19:59
Patiala,Punjab,India,30.33,76.4,Asia/Kolkata,1634912972,2021-10-22 19:59
Kapurthala,Punjab,India,31.38,75.38,Asia/Kolkata,1634912982,2021-10-22 19:59
Chandigarh,Chandigarh,India,30.74,76.79,Asia/Kolkata,1634912992,2021-10-22 19:59
Amritsar,Punjab,India,31.63,74.87,Asia/Kolkata,1634913003,2021-10-22 20:00
Jalandhar,Punjab,India,31.33,75.58,Asia/Kolkata,1634913013,2021-10-22 20:00
Ludhiana,Punjab,India,30.9,75.85,Asia/Kolkata,1634913023,2021-10-22 20:00
Patiala,Punjab,India,30.33,76.4,Asia/Kolkata,1634913034,2021-10-22 20:00
Kapurthala,Punjab,India,31.38,75.38,Asia/Kolkata,1634913044,2021-10-22 20:00
Chandigarh,Chandigarh,India,30.74,76.79,Asia/Kolkata,1634913055,2021-10-22 20:00
Amritsar,Punjab,India,31.63,74.87,Asia/Kolkata,1634913066,2021-10-22 20:01
Jalandhar,Punjab,India,31.33,75.58,Asia/Kolkata,1634913076,2021-10-22 20:01
Ludhiana,Punjab,India,30.9,75.85,Asia/Kolkata,1634913086,2021-10-22 20:01
Patiala,Punjab,India,30.33,76.4,Asia/Kolkata,1634913097,2021-10-22 20:01
Kapurthala,Punjab,India,31.38,75.38,Asia/Kolkata,1634913107,2021-10-22 20:01
Chandigarh,Chandigarh,India,30.74,76.79,Asia/Kolkata,1634913117,2021-10-22 20:01
Amritsar,Punjab,India,31.63,74.87,Asia/Kolkata,1634913128,2021-10-22 20:02
Jalandhar,Punjab,India,31.33,75.58,Asia/Kolkata,1634913138,2021-10-22 20:02
Ludhiana,Punjab,India,30.9,75.85,Asia/Kolkata,1634913148,2021-10-22 20:02
Patiala,Punjab,India,30.33,76.4,Asia/Kolkata,1634913159,2021-10-22 20:02
Kapurthala,Punjab,India,31.38,75.38,Asia/Kolkata,1634913169,2021-10-22 20:02
Jaipur,Rajasthan,India,26.92,75.82,Asia/Kolkata,1634913179,2021-10-22 20:02
Bikaner,Rajasthan,India,28.02,73.3,Asia/Kolkata,1634913190,2021-10-22 20:03
Jaisalmer,Rajasthan,India,26.92,70.9,Asia/Kolkata,1634913200,2021-10-22 20:03
Jodhpur,Rajasthan,India,26.29,73.03,Asia/Kolkata,1634913210,2021-10-22 20:03
Udaipur,Rajasthan,India,27.72,75.48,Asia/Kolkata,1634913220,2021-10-22 20:03
Ajmer,Rajasthan,India,26.45,74.63,Asia/Kolkata,1634913232,2021-10-22 20:03
Jaipur,Rajasthan,India,26.92,75.82,Asia/Kolkata,1634913242,2021-10-22 20:04
Bikaner,Rajasthan,India,28.02,73.3,Asia/Kolkata,1634913252,2021-10-22 20:04
Jaisalmer,Rajasthan,India,26.92,70.9,Asia/Kolkata,1634913263,2021-10-22 20:04
Jodhpur,Rajasthan,India,26.29,73.03,Asia/Kolkata,1634913273,2021-10-22 20:04
Udaipur,Rajasthan,India,27.72,75.48,Asia/Kolkata,1634913283,2021-10-22 20:04
Ajmer,Rajasthan,India,26.45,74.63,Asia/Kolkata,1634913293,2021-10-22 20:04
Jaipur,Rajasthan,India,26.92,75.82,Asia/Kolkata,1634913304,2021-10-22 20:05
Bikaner,Rajasthan,India,28.02,73.3,Asia/Kolkata,1634913314,2021-10-22 20:05
Jaisalmer,Rajasthan,India,26.92,70.9,Asia/Kolkata,1634913325,2021-10-22 20:05
Jodhpur,Rajasthan,India,26.29,73.03,Asia/Kolkata,1634913335,2021-10-22 20:05
Udaipur,Rajasthan,India,27.72,75.48,Asia/Kolkata,1634913345,2021-10-22 20:05
Ajmer,Rajasthan,India,26.45,74.63,Asia/Kolkata,1634913356,2021-10-22 20:05
Jaipur,Rajasthan,India,26.92,75.82,Asia/Kolkata,1634913366,2021-10-22 20:06
Bikaner,Rajasthan,India,28.02,73.3,Asia/Kolkata,1634913376,2021-10-22 20:06
Jaisalmer,Rajasthan,India,26.92,70.9,Asia/Kolkata,1634913387,2021-10-22 20:06
Jodhpur,Rajasthan,India,26.29,73.03,Asia/Kolkata,1634913397,2021-10-22 20:06
Udaipur,Rajasthan,India,27.72,75.48,Asia/Kolkata,1634913407,2021-10-22 20:06
Ajmer,Rajasthan,India,26.45,74.63,Asia/Kolkata,1634913417,2021-10-22 20:06
Jaipur,Rajasthan,India,26.92,75.82,Asia/Kolkata,1634913428,2021-10-22 20:07
Bikaner,Rajasthan,India,28.02,73.3,Asia/Kolkata,1634913438,2021-10-22 20:07
Jaisalmer,Rajasthan,India,26.92,70.9,Asia/Kolkata,1634913448,2021-10-22 20:07
Jodhpur,Rajasthan,India,26.29,73.03,Asia/Kolkata,1634913459,2021-10-22 20:07
Udaipur,Rajasthan,India,27.72,75.48,Asia/Kolkata,1634913469,2021-10-22 20:07
Ajmer,Rajasthan,India,26.45,74.63,Asia/Kolkata,1634913479,2021-10-22 20:07
Jaipur,Rajasthan,India,26.92,75.82,Asia/Kolkata,1634913490,2021-10-22 20:08
Bikaner,Rajasthan,India,28.02,73.3,Asia/Kolkata,1634913500,2021-10-22 20:08
Jaisalmer,Rajasthan,India,26.92,70.9,Asia/Kolkata,1634913511,2021-10-22 20:08
Jodhpur,Rajasthan,India,26.29,73.03,Asia/Kolkata,1634913521,2021-10-22 20:08
Udaipur,Rajasthan,India,27.72,75.48,Asia/Kolkata,1634913532,2021-10-22 20:08
Ajmer,Rajasthan,India,26.45,74.63,Asia/Kolkata,1634913542,2021-10-22 20:09
Jaipur,Rajasthan,India,26.92,75.82,Asia/Kolkata,1634913552,2021-10-22 20:09
Bikaner,Rajasthan,India,28.02,73.3,Asia/Kolkata,1634913562,2021-10-22 20:09
Jaisalmer,Rajasthan,India,26.92,70.9,Asia/Kolkata,1634913573,2021-10-22 20:09
Jodhpur,Rajasthan,India,26.29,73.03,Asia/Kolkata,1634913583,2021-10-22 20:09
Udaipur,Rajasthan,India,27.72,75.48,Asia/Kolkata,1634913593,2021-10-22 20:09
Ajmer,Rajasthan,India,26.45,74.63,Asia/Kolkata,1634913604,2021-10-22 20:10
Jaipur,Rajasthan,India,26.92,75.82,Asia/Kolkata,1634913614,2021-10-22 20:10
Bikaner,Rajasthan,India,28.02,73.3,Asia/Kolkata,1634913624,2021-10-22 20:10
Jaisalmer,Rajasthan,India,26.92,70.9,Asia/Kolkata,1634913635,2021-10-22 20:10
Jodhpur,Rajasthan,India,26.29,73.03,Asia/Kolkata,1634913645,2021-10-22 20:10
Udaipur,Rajasthan,India,27.72,75.48,Asia/Kolkata,1634913655,2021-10-22 20:10
Ajmer,Rajasthan,India,26.45,74.63,Asia/Kolkata,1634913666,2021-10-22 20:11
Gangtok,Sikkim,India,27.33,88.62,Asia/Kolkata,1634913676,2021-10-22 20:11
Namchi,West Bengal,India,27.17,88.35,Asia/Kolkata,1634913686,2021-10-22 20:11
Gyalshing,West Bengal,India,27.28,88.27,Asia/Kolkata,1634913697,2021-10-22 20:11
Mangan,Sikkim,India,27.52,88.53,Asia/Kolkata,1634913707,2021-10-22 20:11
Gangtok,Sikkim,India,27.33,88.62,Asia/Kolkata,1634913728,2021-10-22 20:12
Namchi,West Bengal,India,27.17,88.35,Asia/Kolkata,1634913738,2021-10-22 20:12
Gyalshing,West Bengal,India,27.28,88.27,Asia/Kolkata,1634913748,2021-10-22 20:12
Mangan,Sikkim,India,27.52,88.53,Asia/Kolkata,1634913759,2021-10-22 20:12
Gangtok,Sikkim,India,27.33,88.62,Asia/Kolkata,1634913779,2021-10-22 20:12
Namchi,West Bengal,India,27.17,88.35,Asia/Kolkata,1634913790,2021-10-22 20:13
Gyalshing,West Bengal,India,27.28,88.27,Asia/Kolkata,1634913800,2021-10-22 20:13
Mangan,Sikkim,India,27.52,88.53,Asia/Kolkata,1634913810,2021-10-22 20:13
Gangtok,Sikkim,India,27.33,88.62,Asia/Kolkata,1634913831,2021-10-22 20:13
Namchi,West Bengal,India,27.17,88.35,Asia/Kolkata,1634913841,2021-10-22 20:14
Gyalshing,West Bengal,India,27.28,88.27,Asia/Kolkata,1634913852,2021-10-22 20:14
Mangan,Sikkim,India,27.52,88.53,Asia/Kolkata,1634913862,2021-10-22 20:14
Gangtok,Sikkim,India,27.33,88.62,Asia/Kolkata,1634913883,2021-10-22 20:14
Namchi,West Bengal,India,27.17,88.35,Asia/Kolkata,1634913893,2021-10-22 20:14
Gyalshing,West Bengal,India,27.28,88.27,Asia/Kolkata,1634913903,2021-10-22 20:15
Mangan,Sikkim,India,27.52,88.53,Asia/Kolkata,1634913913,2021-10-22 20:15
Gangtok,Sikkim,India,27.33,88.62,Asia/Kolkata,1634913934,2021-10-22 20:15
Namchi,West Bengal,India,27.17,88.35,Asia/Kolkata,1634913944,2021-10-22 20:15
Gyalshing,West Bengal,India,27.28,88.27,Asia/Kolkata,1634913954,2021-10-22 20:15
Mangan,Sikkim,India,27.52,88.53,Asia/Kolkata,1634913965,2021-10-22 20:16
Gangtok,Sikkim,India,27.33,88.62,Asia/Kolkata,1634913986,2021-10-22 20:16
Namchi,West Bengal,India,27.17,88.35,Asia/Kolkata,1634913996,2021-10-22 20:16
Gyalshing,West Bengal,India,27.28,88.27,Asia/Kolkata,1634914006,2021-10-22 20:16
Mangan,Sikkim,India,27.52,88.53,Asia/Kolkata,1634914017,2021-10-22 20:16
Gangtok,Sikkim,India,27.33,88.62,Asia/Kolkata,1634914037,2021-10-22 20:17
Namchi,West Bengal,India,27.17,88.35,Asia/Kolkata,1634914047,2021-10-22 20:17
Gyalshing,West Bengal,India,27.28,88.27,Asia/Kolkata,1634914058,2021-10-22 20:17
Mangan,Sikkim,India,27.52,88.53,Asia/Kolkata,1634914068,2021-10-22 20:17
Chennai,Tamil Nadu,India,13.08,80.28,Asia/Kolkata,1634914089,2021-10-22 20:18
Tiruchirappalli,Tamil Nadu,India,10.81,78.69,Asia/Kolkata,1634914099,2021-10-22 20:18
Madurai,Tamil Nadu,India,9.93,78.12,Asia/Kolkata,1634914109,2021-10-22 20:18
Erode,Tamil Nadu,India,11.35,77.73,Asia/Kolkata,1634914120,2021-10-22 20:18
Vellore,Tamil Nadu,India,12.93,79.13,Asia/Kolkata,1634914130,2021-10-22 20:18
Coimbatore,Tamil Nadu,India,10.99,76.96,Asia/Kolkata,1634914140,2021-10-22 20:19
Chennai,Tamil Nadu,India,13.08,80.28,Asia/Kolkata,1634914150,2021-10-22 20:19
Tiruchirappalli,Tamil Nadu,India,10.81,78.69,Asia/Kolkata,1634914161,2021-10-22 20:19
Madurai,Tamil Nadu,India,9.93,78.12,Asia/Kolkata,1634914171,2021-10-22 20:19
Erode,Tamil Nadu,India,11.35,77.73,Asia/Kolkata,1634914181,2021-10-22 20:19
Vellore,Tamil Nadu,India,12.93,79.13,Asia/Kolkata,1634914192,2021-10-22 20:19
Coimbatore,Tamil Nadu,India,10.99,76.96,Asia/Kolkata,1634914202,2021-10-22 20:20
Chennai,Tamil Nadu,India,13.08,80.28,Asia/Kolkata,1634914212,2021-10-22 20:20
Tiruchirappalli,Tamil Nadu,India,10.81,78.69,Asia/Kolkata,1634914223,2021-10-22 20:20
Madurai,Tamil Nadu,India,9.93,78.12,Asia/Kolkata,1634914233,2021-10-22 20:20
Erode,Tamil Nadu,India,11.35,77.73,Asia/Kolkata,1634914243,2021-10-22 20:20
Vellore,Tamil Nadu,India,12.93,79.13,Asia/Kolkata,1634914254,2021-10-22 20:20
Coimbatore,Tamil Nadu,India,10.99,76.96,Asia/Kolkata,1634914264,2021-10-22 20:21
Chennai,Tamil Nadu,India,13.08,80.28,Asia/Kolkata,1634914274,2021-10-22 20:21
Tiruchirappalli,Tamil Nadu,India,10.81,78.69,Asia/Kolkata,1634914284,2021-10-22 20:21
Madurai,Tamil Nadu,India,9.93,78.12,Asia/Kolkata,1634914295,2021-10-22 20:21
Erode,Tamil Nadu,India,11.35,77.73,Asia/Kolkata,1634914305,2021-10-22 20:21
Vellore,Tamil Nadu,India,12.93,79.13,Asia/Kolkata,1634914315,2021-10-22 20:21
Coimbatore,Tamil Nadu,India,10.99,76.96,Asia/Kolkata,1634914326,2021-10-22 20:22
Chennai,Tamil Nadu,India,13.08,80.28,Asia/Kolkata,1634914336,2021-10-22 20:22
Tiruchirappalli,Tamil Nadu,India,10.81,78.69,Asia/Kolkata,1634914346,2021-10-22 20:22
Madurai,Tamil Nadu,India,9.93,78.12,Asia/Kolkata,1634914357,2021-10-22 20:22
Erode,Tamil Nadu,India,11.35,77.73,Asia/Kolkata,1634914367,2021-10-22 20:22
Vellore,Tamil Nadu,India,12.93,79.13,Asia/Kolkata,1634914378,2021-10-22 20:22
Coimbatore,Tamil Nadu,India,10.99,76.96,Asia/Kolkata,1634914388,2021-10-22 20:23
Chennai,Tamil Nadu,India,13.08,80.28,Asia/Kolkata,1634914398,2021-10-22 20:23
Tiruchirappalli,Tamil Nadu,India,10.81,78.69,Asia/Kolkata,1634914408,2021-10-22 20:23
Madurai,Tamil Nadu,India,9.93,78.12,Asia/Kolkata,1634914419,2021-10-22 20:23
Erode,Tamil Nadu,India,11.35,77.73,Asia/Kolkata,1634914429,2021-10-22 20:23
Vellore,Tamil Nadu,India,12.93,79.13,Asia/Kolkata,1634914439,2021-10-22 20:23
Coimbatore,Tamil Nadu,India,10.99,76.96,Asia/Kolkata,1634914450,2021-10-22 20:24
Chennai,Tamil Nadu,India,13.08,80.28,Asia/Kolkata,1634914460,2021-10-22 20:24
Tiruchirappalli,Tamil Nadu,India,10.81,78.69,Asia/Kolkata,1634914470,2021-10-22 20:24
Madurai,Tamil Nadu,India,9.93,78.12,Asia/Kolkata,1634914480,2021-10-22 20:24
Erode,Tamil Nadu,India,11.35,77.73,Asia/Kolkata,1634914491,2021-10-22 20:24
Vellore,Tamil Nadu,India,12.93,79.13,Asia/Kolkata,1634914501,2021-10-22 20:25
Coimbatore,Tamil Nadu,India,10.99,76.96,Asia/Kolkata,1634914511,2021-10-22 20:25
Chennai,Tamil Nadu,India,13.08,80.28,Asia/Kolkata,1634914522,2021-10-22 20:25
Tiruchirappalli,Tamil Nadu,India,10.81,78.69,Asia/Kolkata,1634914532,2021-10-22 20:25
Madurai,Tamil Nadu,India,9.93,78.12,Asia/Kolkata,1634914542,2021-10-22 20:25
Erode,Tamil Nadu,India,11.35,77.73,Asia/Kolkata,1634914553,2021-10-22 20:25
Vellore,Tamil Nadu,India,12.93,79.13,Asia/Kolkata,1634914563,2021-10-22 20:26
Coimbatore,Tamil Nadu,India,10.99,76.96,Asia/Kolkata,1634914573,2021-10-22 20:26
Hyderabad,Andhra Pradesh,India,17.38,78.47,Asia/Kolkata,1634914583,2021-10-22 20:26
Warangal,Andhra Pradesh,India,18.0,79.58,Asia/Kolkata,1634914594,2021-10-22 20:26
Nizamabad,Andhra Pradesh,India,18.67,78.12,Asia/Kolkata,1634914604,2021-10-22 20:26
Karimnagar,Andhra Pradesh,India,18.43,79.15,Asia/Kolkata,1634914614,2021-10-22 20:26
Adilabad,Andhra Pradesh,India,19.67,78.53,Asia/Kolkata,1634914625,2021-10-22 20:27
Khammam,Andhra Pradesh,India,17.25,80.15,Asia/Kolkata,1634914635,2021-10-22 20:27
Hyderabad,Andhra Pradesh,India,17.38,78.47,Asia/Kolkata,1634914645,2021-10-22 20:27
Warangal,Andhra Pradesh,India,18.0,79.58,Asia/Kolkata,1634914656,2021-10-22 20:27
Nizamabad,Andhra Pradesh,India,18.67,78.12,Asia/Kolkata,1634914666,2021-10-22 20:27
Karimnagar,Andhra Pradesh,India,18.43,79.15,Asia/Kolkata,1634914676,2021-10-22 20:27
Adilabad,Andhra Pradesh,India,19.67,78.53,Asia/Kolkata,1634914687,2021-10-22 20:28
Khammam,Andhra Pradesh,India,17.25,80.15,Asia/Kolkata,1634914697,2021-10-22 20:28
Hyderabad,Andhra Pradesh,India,17.38,78.47,Asia/Kolkata,1634914708,2021-10-22 20:28
Warangal,Andhra Pradesh,India,18.0,79.58,Asia/Kolkata,1634914718,2021-10-22 20:28
Nizamabad,Andhra Pradesh,India,18.67,78.12,Asia/Kolkata,1634914729,2021-10-22 20:28
Karimnagar,Andhra Pradesh,India,18.43,79.15,Asia/Kolkata,1634914739,2021-10-22 20:28
Adilabad,Andhra Pradesh,India,19.67,78.53,Asia/Kolkata,1634914749,2021-10-22 20:29
Khammam,Andhra Pradesh,India,17.25,80.15,Asia/Kolkata,1634914760,2021-10-22 20:29
Hyderabad,Andhra Pradesh,India,17.38,78.47,Asia/Kolkata,1634914770,2021-10-22 20:29
Warangal,Andhra Pradesh,India,18.0,79.58,Asia/Kolkata,1634914780,2021-10-22 20:29
Nizamabad,Andhra Pradesh,India,18.67,78.12,Asia/Kolkata,1634914791,2021-10-22 20:29
Karimnagar,Andhra Pradesh,India,18.43,79.15,Asia/Kolkata,1634914801,2021-10-22 20:30
Adilabad,Andhra Pradesh,India,19.67,78.53,Asia/Kolkata,1634914811,2021-10-22 20:30
Khammam,Andhra Pradesh,India,17.25,80.15,Asia/Kolkata,1634914822,2021-10-22 20:30
Hyderabad,Andhra Pradesh,India,17.38,78.47,Asia/Kolkata,1634914832,2021-10-22 20:30
Warangal,Andhra Pradesh,India,18.0,79.58,Asia/Kolkata,1634914843,2021-10-22 20:30
Nizamabad,Andhra Pradesh,India,18.67,78.12,Asia/Kolkata,1634914853,2021-10-22 20:30
Karimnagar,Andhra Pradesh,India,18.43,79.15,Asia/Kolkata,1634914863,2021-10-22 20:31
Adilabad,Andhra Pradesh,India,19.67,78.53,Asia/Kolkata,1634914874,2021-10-22 20:31
Khammam,Andhra Pradesh,India,17.25,80.15,Asia/Kolkata,1634914884,2021-10-22 20:31
Hyderabad,Andhra Pradesh,India,17.38,78.47,Asia/Kolkata,1634914894,2021-10-22 20:31
Warangal,Andhra Pradesh,India,18.0,79.58,Asia/Kolkata,1634914904,2021-10-22 20:31
Nizamabad,Andhra Pradesh,India,18.67,78.12,Asia/Kolkata,1634914915,2021-10-22 20:31
Karimnagar,Andhra Pradesh,India,18.43,79.15,Asia/Kolkata,1634914925,2021-10-22 20:32
Adilabad,Andhra Pradesh,India,19.67,78.53,Asia/Kolkata,1634914936,2021-10-22 20:32
Khammam,Andhra Pradesh,India,17.25,80.15,Asia/Kolkata,1634914946,2021-10-22 20:32
Hyderabad,Andhra Pradesh,India,17.38,78.47,Asia/Kolkata,1634914956,2021-10-22 20:32
Warangal,Andhra Pradesh,India,18.0,79.58,Asia/Kolkata,1634914967,2021-10-22 20:32
Nizamabad,Andhra Pradesh,India,18.67,78.12,Asia/Kolkata,1634914977,2021-10-22 20:32
Karimnagar,Andhra Pradesh,India,18.43,79.15,Asia/Kolkata,1634914987,2021-10-22 20:33
Adilabad,Andhra Pradesh,India,19.67,78.53,Asia/Kolkata,1634914998,2021-10-22 20:33
Khammam,Andhra Pradesh,India,17.25,80.15,Asia/Kolkata,1634915008,2021-10-22 20:33
Hyderabad,Andhra Pradesh,India,17.38,78.47,Asia/Kolkata,1634915019,2021-10-22 20:33
Warangal,Andhra Pradesh,India,18.0,79.58,Asia/Kolkata,1634915029,2021-10-22 20:33
Nizamabad,Andhra Pradesh,India,18.67,78.12,Asia/Kolkata,1634915039,2021-10-22 20:33
Karimnagar,Andhra Pradesh,India,18.43,79.15,Asia/Kolkata,1634915050,2021-10-22 20:34
Adilabad,Andhra Pradesh,India,19.67,78.53,Asia/Kolkata,1634915060,2021-10-22 20:34
Khammam,Andhra Pradesh,India,17.25,80.15,Asia/Kolkata,1634915070,2021-10-22 20:34
Agartala,Tripura,India,23.84,91.28,Asia/Kolkata,1634915080,2021-10-22 20:34
Amarpur,Bihar,India,25.03,86.9,Asia/Kolkata,1634915091,2021-10-22 20:34
Udaipur,Rajasthan,India,27.72,75.48,Asia/Kolkata,1634915111,2021-10-22 20:35
Kunjaban,,Bangladesh,24.92,88.75,Asia/Dhaka,1634915132,2021-10-22 21:05
Agartala,Tripura,India,23.84,91.28,Asia/Kolkata,1634915142,2021-10-22 20:35
Amarpur,Bihar,India,25.03,86.9,Asia/Kolkata,1634915152,2021-10-22 20:35
Udaipur,Rajasthan,India,27.72,75.48,Asia/Kolkata,1634915173,2021-10-22 20:36
Kunjaban,,Bangladesh,24.92,88.75,Asia/Dhaka,1634915193,2021-10-22 21:06
Agartala,Tripura,India,23.84,91.28,Asia/Kolkata,1634915204,2021-10-22 20:36
Amarpur,Bihar,India,25.03,86.9,Asia/Kolkata,1634915214,2021-10-22 20:36
Udaipur,Rajasthan,India,27.72,75.48,Asia/Kolkata,1634915235,2021-10-22 20:37
Kunjaban,,Bangladesh,24.92,88.75,Asia/Dhaka,1634915255,2021-10-22 21:07
Agartala,Tripura,India,23.84,91.28,Asia/Kolkata,1634915266,2021-10-22 20:37
Amarpur,Bihar,India,25.03,86.9,Asia/Kolkata,1634915276,2021-10-22 20:37
Udaipur,Rajasthan,India,27.72,75.48,Asia/Kolkata,1634915297,2021-10-22 20:38
Kunjaban,,Bangladesh,24.92,88.75,Asia/Dhaka,1634915317,2021-10-22 21:08
Agartala,Tripura,India,23.84,91.28,Asia/Kolkata,1634915328,2021-10-22 20:38
Amarpur,Bihar,India,25.03,86.9,Asia/Kolkata,1634915338,2021-10-22 20:38
Udaipur,Rajasthan,India,27.72,75.48,Asia/Kolkata,1634915358,2021-10-22 20:39
Kunjaban,,Bangladesh,24.92,88.75,Asia/Dhaka,1634915379,2021-10-22 21:09
Agartala,Tripura,India,23.84,91.28,Asia/Kolkata,1634915390,2021-10-22 20:39
Amarpur,Bihar,India,25.03,86.9,Asia/Kolkata,1634915400,2021-10-22 20:40
Udaipur,Rajasthan,India,27.72,75.48,Asia/Kolkata,1634915421,2021-10-22 20:40
Kunjaban,,Bangladesh,24.92,88.75,Asia/Dhaka,1634915441,2021-10-22 21:10
Agartala,Tripura,India,23.84,91.28,Asia/Kolkata,1634915452,2021-10-22 20:40
Amarpur,Bihar,India,25.03,86.9,Asia/Kolkata,1634915462,2021-10-22 20:41
Udaipur,Rajasthan,India,27.72,75.48,Asia/Kolkata,1634915482,2021-10-22 20:41
Kunjaban,,Bangladesh,24.92,88.75,Asia/Dhaka,1634915503,2021-10-22 21:11
Agartala,Tripura,India,23.84,91.28,Asia/Kolkata,1634915513,2021-10-22 20:41
Amarpur,Bihar,India,25.03,86.9,Asia/Kolkata,1634915524,2021-10-22 20:42
Udaipur,Rajasthan,India,27.72,75.48,Asia/Kolkata,1634915544,2021-10-22 20:42
Kunjaban,,Bangladesh,24.92,88.75,Asia/Dhaka,1634915565,2021-10-22 21:12
Lucknow,Uttar Pradesh,India,26.85,80.92,Asia/Kolkata,1634915575,2021-10-22 20:42
Noida,Uttar Pradesh,India,28.57,77.32,Asia/Kolkata,1634915585,2021-10-22 20:43
Varanasi,Uttar Pradesh,India,25.33,83.0,Asia/Kolkata,1634915596,2021-10-22 20:43
Allahabad,Uttar Pradesh,India,25.45,81.85,Asia/Kolkata,1634915606,2021-10-22 20:43
Agra,Uttar Pradesh,India,27.18,78.02,Asia/Kolkata,1634915616,2021-10-22 20:43
Kanpur,Uttar Pradesh,India,26.47,80.35,Asia/Kolkata,1634915627,2021-10-22 20:43
Lucknow,Uttar Pradesh,India,26.85,80.92,Asia/Kolkata,1634915637,2021-10-22 20:43
Noida,Uttar Pradesh,India,28.57,77.32,Asia/Kolkata,1634915648,2021-10-22 20:44
Varanasi,Uttar Pradesh,India,25.33,83.0,Asia/Kolkata,1634915658,2021-10-22 20:44
Allahabad,Uttar Pradesh,India,25.45,81.85,Asia/Kolkata,1634915668,2021-10-22 20:44
Agra,Uttar Pradesh,India,27.18,78.02,Asia/Kolkata,1634915679,2021-10-22 20:44
Kanpur,Uttar Pradesh,India,26.47,80.35,Asia/Kolkata,1634915689,2021-10-22 20:44
Lucknow,Uttar Pradesh,India,26.85,80.92,Asia/Kolkata,1634915699,2021-10-22 20:44
Noida,Uttar Pradesh,India,28.57,77.32,Asia/Kolkata,1634915709,2021-10-22 20:45
Varanasi,Uttar Pradesh,India,25.33,83.0,Asia/Kolkata,1634915720,2021-10-22 20:45
Allahabad,Uttar Pradesh,India,25.45,81.85,Asia/Kolkata,1634915730,2021-10-22 20:45
Agra,Uttar Pradesh,India,27.18,78.02,Asia/Kolkata,1634915740,2021-10-22 20:45
Kanpur,Uttar Pradesh,India,26.47,80.35,Asia/Kolkata,1634915751,2021-10-22 20:45
Lucknow,Uttar Pradesh,India,26.85,80.92,Asia/Kolkata,1634915761,2021-10-22 20:46
Noida,Uttar Pradesh,India,28.57,77.32,Asia/Kolkata,1634915771,2021-10-22 20:46
Varanasi,Uttar Pradesh,India,25.33,83.0,Asia/Kolkata,1634915782,2021-10-22 20:46
Allahabad,Uttar Pradesh,India,25.45,81.85,Asia/Kolkata,1634915792,2021-10-22 20:46
Agra,Uttar Pradesh,India,27.18,78.02,Asia/Kolkata,1634915802,2021-10-22 20:46
Kanpur,Uttar Pradesh,India,26.47,80.35,Asia/Kolkata,1634915813,2021-10-22 20:46
Lucknow,Uttar Pradesh,India,26.85,80.92,Asia/Kolkata,1634915823,2021-10-22 20:47
Noida,Uttar Pradesh,India,28.57,77.32,Asia/Kolkata,1634915833,2021-10-22 20:47
Varanasi,Uttar Pradesh,India,25.33,83.0,Asia/Kolkata,1634915843,2021-10-22 20:47
Allahabad,Uttar Pradesh,India,25.45,81.85,Asia/Kolkata,1634915854,2021-10-22 20:47
Agra,Uttar Pradesh,India,27.18,78.02,Asia/Kolkata,1634915864,2021-10-22 20:47
Kanpur,Uttar Pradesh,India,26.47,80.35,Asia/Kolkata,1634915875,2021-10-22 20:47
Lucknow,Uttar Pradesh,India,26.85,80.92,Asia/Kolkata,1634915885,2021-10-22 20:48
Noida,Uttar Pradesh,India,28.57,77.32,Asia/Kolkata,1634915895,2021-10-22 20:48
Varanasi,Uttar Pradesh,India,25.33,83.0,Asia/Kolkata,1634915906,2021-10-22 20:48
Allahabad,Uttar Pradesh,India,25.45,81.85,Asia/Kolkata,1634915916,2021-10-22 20:48
Agra,Uttar Pradesh,India,27.18,78.02,Asia/Kolkata,1634915926,2021-10-22 20:48
Kanpur,Uttar Pradesh,India,26.47,80.35,Asia/Kolkata,1634915937,2021-10-22 20:48
Lucknow,Uttar Pradesh,India,26.85,80.92,Asia/Kolkata,1634915947,2021-10-22 20:49
Noida,Uttar Pradesh,India,28.57,77.32,Asia/Kolkata,1634915958,2021-10-22 20:49
Varanasi,Uttar Pradesh,India,25.33,83.0,Asia/Kolkata,1634915968,2021-10-22 20:49
Allahabad,Uttar Pradesh,India,25.45,81.85,Asia/Kolkata,1634915978,2021-10-22 20:49
Agra,Uttar Pradesh,India,27.18,78.02,Asia/Kolkata,1634915989,2021-10-22 20:49
Kanpur,Uttar Pradesh,India,26.47,80.35,Asia/Kolkata,1634915999,2021-10-22 20:49
Lucknow,Uttar Pradesh,India,26.85,80.92,Asia/Kolkata,1634916010,2021-10-22 20:50
Noida,Uttar Pradesh,India,28.57,77.32,Asia/Kolkata,1634916020,2021-10-22 20:50
Varanasi,Uttar Pradesh,India,25.33,83.0,Asia/Kolkata,1634916030,2021-10-22 20:50
Allahabad,Uttar Pradesh,India,25.45,81.85,Asia/Kolkata,1634916041,2021-10-22 20:50
Agra,Uttar Pradesh,India,27.18,78.02,Asia/Kolkata,1634916051,2021-10-22 20:50
Kanpur,Uttar Pradesh,India,26.47,80.35,Asia/Kolkata,1634916061,2021-10-22 20:51
Dehradun,Uttarakhand,India,30.32,78.03,Asia/Kolkata,1634916072,2021-10-22 20:51
Haridwar,Uttarakhand,India,29.97,78.17,Asia/Kolkata,1634916082,2021-10-22 20:51
Roorkee,Uttarakhand,India,29.87,77.88,Asia/Kolkata,1634916092,2021-10-22 20:51
Rishikesh,Uttarakhand,India,30.12,78.32,Asia/Kolkata,1634916103,2021-10-22 20:51
Kashipur,Uttarakhand,India,29.22,78.95,Asia/Kolkata,1634916113,2021-10-22 20:51
Haldwani,Uttarakhand,India,29.22,79.52,Asia/Kolkata,1634916123,2021-10-22 20:52
Dehradun,Uttarakhand,India,30.32,78.03,Asia/Kolkata,1634916134,2021-10-22 20:52
Haridwar,Uttarakhand,India,29.97,78.17,Asia/Kolkata,1634916144,2021-10-22 20:52
Roorkee,Uttarakhand,India,29.87,77.88,Asia/Kolkata,1634916155,2021-10-22 20:52
Rishikesh,Uttarakhand,India,30.12,78.32,Asia/Kolkata,1634916165,2021-10-22 20:52
Kashipur,Uttarakhand,India,29.22,78.95,Asia/Kolkata,1634916176,2021-10-22 20:52
Haldwani,Uttarakhand,India,29.22,79.52,Asia/Kolkata,1634916186,2021-10-22 20:53
Dehradun,Uttarakhand,India,30.32,78.03,Asia/Kolkata,1634916196,2021-10-22 20:53
Haridwar,Uttarakhand,India,29.97,78.17,Asia/Kolkata,1634916207,2021-10-22 20:53
Roorkee,Uttarakhand,India,29.87,77.88,Asia/Kolkata,1634916217,2021-10-22 20:53
Rishikesh,Uttarakhand,India,30.12,78.32,Asia/Kolkata,1634916227,2021-10-22 20:53
Kashipur,Uttarakhand,India,29.22,78.95,Asia/Kolkata,1634916238,2021-10-22 20:53
Haldwani,Uttarakhand,India,29.22,79.52,Asia/Kolkata,1634916248,2021-10-22 20:54
Dehradun,Uttarakhand,India,30.32,78.03,Asia/Kolkata,1634916258,2021-10-22 20:54
Haridwar,Uttarakhand,India,29.97,78.17,Asia/Kolkata,1634916269,2021-10-22 20:54
Roorkee,Uttarakhand,India,29.87,77.88,Asia/Kolkata,1634916279,2021-10-22 20:54
Rishikesh,Uttarakhand,India,30.12,78.32,Asia/Kolkata,1634916289,2021-10-22 20:54
Kashipur,Uttarakhand,India,29.22,78.95,Asia/Kolkata,1634916300,2021-10-22 20:55
Haldwani,Uttarakhand,India,29.22,79.52,Asia/Kolkata,1634916310,2021-10-22 20:55
Dehradun,Uttarakhand,India,30.32,78.03,Asia/Kolkata,1634916320,2021-10-22 20:55
Haridwar,Uttarakhand,India,29.97,78.17,Asia/Kolkata,1634916330,2021-10-22 20:55
Roorkee,Uttarakhand,India,29.87,77.88,Asia/Kolkata,1634916341,2021-10-22 20:55
Rishikesh,Uttarakhand,India,30.12,78.32,Asia/Kolkata,1634916351,2021-10-22 20:55
Kashipur,Uttarakhand,India,29.22,78.95,Asia/Kolkata,1634916361,2021-10-22 20:56
Haldwani,Uttarakhand,India,29.22,79.52,Asia/Kolkata,1634916372,2021-10-22 20:56
Dehradun,Uttarakhand,India,30.32,78.03,Asia/Kolkata,1634916382,2021-10-22 20:56
Haridwar,Uttarakhand,India,29.97,78.17,Asia/Kolkata,1634916392,2021-10-22 20:56
Roorkee,Uttarakhand,India,29.87,77.88,Asia/Kolkata,1634916403,2021-10-22 20:56
Rishikesh,Uttarakhand,India,30.12,78.32,Asia/Kolkata,1634916413,2021-10-22 20:56
Kashipur,Uttarakhand,India,29.22,78.95,Asia/Kolkata,1634916423,2021-10-22 20:57
Haldwani,Uttarakhand,India,29.22,79.52,Asia/Kolkata,1634916434,2021-10-22 20:57
Dehradun,Uttarakhand,India,30.32,78.03,Asia/Kolkata,1634916444,2021-10-22 20:57
Haridwar,Uttarakhand,India,29.97,78.17,Asia/Kolkata,1634916455,2021-10-22 20:57
Roorkee,Uttarakhand,India,29.87,77.88,Asia/Kolkata,1634916465,2021-10-22 20:57
Rishikesh,Uttarakhand,India,30.12,78.32,Asia/Kolkata,1634916475,2021-10-22 20:57
Kashipur,Uttarakhand,India,29.22,78.95,Asia/Kolkata,1634916486,2021-10-22 20:58
Haldwani,Uttarakhand,India,29.22,79.52,Asia/Kolkata,1634916496,2021-10-22 20:58
Dehradun,Uttarakhand,India,30.32,78.03,Asia/Kolkata,1634916506,2021-10-22 20:58
Haridwar,Uttarakhand,India,29.97,78.17,Asia/Kolkata,1634916517,2021-10-22 20:58
Roorkee,Uttarakhand,India,29.87,77.88,Asia/Kolkata,1634916527,2021-10-22 20:58
Rishikesh,Uttarakhand,India,30.12,78.32,Asia/Kolkata,1634916537,2021-10-22 20:58
Kashipur,Uttarakhand,India,29.22,78.95,Asia/Kolkata,1634916548,2021-10-22 20:59
Haldwani,Uttarakhand,India,29.22,79.52,Asia/Kolkata,1634916558,2021-10-22 20:59
Kolkata,West Bengal,India,22.57,88.37,Asia/Kolkata,1634916568,2021-10-22 20:59
Darjeeling,West Bengal,India,27.03,88.27,Asia/Kolkata,1634916579,2021-10-22 20:59
Siliguri,,Nepal,29.27,80.98,Asia/Kathmandu,1634916589,2021-10-22 21:14
Asansol,West Bengal,India,23.68,86.98,Asia/Kolkata,1634916599,2021-10-22 20:59
Howrah,West Bengal,India,22.59,88.31,Asia/Kolkata,1634916610,2021-10-22 21:00
Durgapur,West Bengal,India,23.48,87.32,Asia/Kolkata,1634916620,2021-10-22 21:00
Kolkata,West Bengal,India,22.57,88.37,Asia/Kolkata,1634916630,2021-10-22 21:00
Darjeeling,West Bengal,India,27.03,88.27,Asia/Kolkata,1634916641,2021-10-22 21:00
Siliguri,,Nepal,29.27,80.98,Asia/Kathmandu,1634916651,2021-10-22 21:15
Asansol,West Bengal,India,23.68,86.98,Asia/Kolkata,1634916661,2021-10-22 21:01
Howrah,West Bengal,India,22.59,88.31,Asia/Kolkata,1634916672,2021-10-22 21:01
Durgapur,West Bengal,India,23.48,87.32,Asia/Kolkata,1634916682,2021-10-22 21:01
Kolkata,West Bengal,India,22.57,88.37,Asia/Kolkata,1634916693,2021-10-22 21:01
Darjeeling,West Bengal,India,27.03,88.27,Asia/Kolkata,1634916703,2021-10-22 21:01
Siliguri,,Nepal,29.27,80.98,Asia/Kathmandu,1634916713,2021-10-22 21:16
Asansol,West Bengal,India,23.68,86.98,Asia/Kolkata,1634916723,2021-10-22 21:02
Howrah,West Bengal,India,22.59,88.31,Asia/Kolkata,1634916734,2021-10-22 21:02
Durgapur,West Bengal,India,23.48,87.32,Asia/Kolkata,1634916744,2021-10-22 21:02
Kolkata,West Bengal,India,22.57,88.37,Asia/Kolkata,1634916755,2021-10-22 21:02
Darjeeling,West Bengal,India,27.03,88.27,Asia/Kolkata,1634916765,2021-10-22 21:02
Siliguri,,Nepal,29.27,80.98,Asia/Kathmandu,1634916776,2021-10-22 21:17
Asansol,West Bengal,India,23.68,86.98,Asia/Kolkata,1634916786,2021-10-22 21:03
Howrah,West Bengal,India,22.59,88.31,Asia/Kolkata,1634916797,2021-10-22 21:03
Durgapur,West Bengal,India,23.48,87.32,Asia/Kolkata,1634916807,2021-10-22 21:03
Kolkata,West Bengal,India,22.57,88.37,Asia/Kolkata,1634916817,2021-10-22 21:03
Darjeeling,West Bengal,India,27.03,88.27,Asia/Kolkata,1634916828,2021-10-22 21:03
Siliguri,,Nepal,29.27,80.98,Asia/Kathmandu,1634916838,2021-10-22 21:18
Asansol,West Bengal,India,23.68,86.98,Asia/Kolkata,1634916848,2021-10-22 21:04
Howrah,West Bengal,India,22.59,88.31,Asia/Kolkata,1634916859,2021-10-22 21:04
Durgapur,West Bengal,India,23.48,87.32,Asia/Kolkata,1634916869,2021-10-22 21:04
Kolkata,West Bengal,India,22.57,88.37,Asia/Kolkata,1634916880,2021-10-22 21:04
Darjeeling,West Bengal,India,27.03,88.27,Asia/Kolkata,1634916890,2021-10-22 21:04
Siliguri,,Nepal,29.27,80.98,Asia/Kathmandu,1634916900,2021-10-22 21:20
Asansol,West Bengal,India,23.68,86.98,Asia/Kolkata,1634916911,2021-10-22 21:05
Howrah,West Bengal,India,22.59,88.31,Asia/Kolkata,1634916921,2021-10-22 21:05
Durgapur,West Bengal,India,23.48,87.32,Asia/Kolkata,1634916931,2021-10-22 21:05
Kolkata,West Bengal,India,22.57,88.37,Asia/Kolkata,1634916941,2021-10-22 21:05
Darjeeling,West Bengal,India,27.03,88.27,Asia/Kolkata,1634916952,2021-10-22 21:05
Siliguri,,Nepal,29.27,80.98,Asia/Kathmandu,1634916962,2021-10-22 21:21
Asansol,West Bengal,India,23.68,86.98,Asia/Kolkata,1634916972,2021-10-22 21:06
Howrah,West Bengal,India,22.59,88.31,Asia/Kolkata,1634916983,2021-10-22 21:06
Durgapur,West Bengal,India,23.48,87.32,Asia/Kolkata,1634916993,2021-10-22 21:06
Kolkata,West Bengal,India,22.57,88.37,Asia/Kolkata,1634917004,2021-10-22 21:06
Darjeeling,West Bengal,India,27.03,88.27,Asia/Kolkata,1634917014,2021-10-22 21:06
Siliguri,,Nepal,29.27,80.98,Asia/Kathmandu,1634917024,2021-10-22 21:22
Asansol,West Bengal,India,23.68,86.98,Asia/Kolkata,1634917035,2021-10-22 21:07
Howrah,West Bengal,India,22.59,88.31,Asia/Kolkata,1634917045,2021-10-22 21:07
Durgapur,West Bengal,India,23.48,87.32,Asia/Kolkata,1634917056,2021-10-22 21:07
